RegionId,RegionName,CountryArea,CountryCode,StationId,IndexNbr,IndexSubNbr,StationName,Latitude,Longitude,Hp,HpFlag,Hha,HhaFlag,PressureDefId,SO-1,SO-2,SO-3,SO-4,SO-5,SO-6,SO-7,SO-8,ObsHs,UA-1,UA-2,UA-3,UA-4,ObsRems,lat,lng,url
2,Asia,Japan,JPN,0-20000-0-47409,47409,0,ABASHIRI,44 01 04N,144 16 47E,43.50,,37.58,,mean sea level,,,,,,,,,,,,,,"Automatic weather station (AWS), Climatological station, Radiation station, Surface land meteorological station (SYNOP), GOS General, BSRN, RBCN - deprecated, RBSN(S) - deprecated, GBON, CLIMAT(C) - to be deprecated, RBON",44.0178,144.2797,https://oscar.wmo.int/surface/#/search/station/stationReportDetails/0-20000-0-47409
2,Asia,Japan,JPN,0-20000-0-47835,47835,0,ABURATSU,31 34 43N,131 24 28E,14.60,,2.90,,mean sea level,,,,,,,,,,,,,,"Automatic weather station (AWS), Surface land meteorological station (SYNOP), GOS General",31.5786,131.4078,https://oscar.wmo.int/surface/#/search/station/stationReportDetails/0-20000-0-47835
2,Asia,Japan,JPN,0-20000-0-47602,47602,0,AIKAWA,38 01 45N,138 14 24E,7.20,,5.50,,mean sea level,,,,,,,,,,,,,,"Automatic weather station (AWS), Surface land meteorological station (SYNOP), GOS General",38.0292,138.24,https://oscar.wmo.int/surface/#/search/station/stationReportDetails/0-20000-0-47602
2,Asia,Japan,JPN,0-20000-0-47668,47668,0,AJIRO,35 02 47N,139 05 31E,68.55,,66.94,,mean sea level,,,,,,,,,,,,,,"Automatic weather station (AWS), Surface land meteorological station (SYNOP), GOS General",35.0464,139.0919,https://oscar.wmo.int/surface/#/search/station/stationReportDetails/0-20000-0-47668
2,Asia,Japan,JPN,0-20000-0-47730,47730,0,AKENO AB,34 32 00N,136 40 20E,9.10,,6.10,,mean sea level,,,,,,,,,,,,,,"Surface land meteorological station (SYNOP), GOS General",34.5333,136.6722,https://oscar.wmo.int/surface/#/search/station/stationReportDetails/0-20000-0-47730
2,Asia,Japan,JPN,0-20000-0-47582,47582,0,AKITA (47582-0),39 43 02N,140 05 58E,21.80,,6.30,,mean sea level,,,,,,,,,,,,,,"Automatic weather station (AWS), Climatological station, Precipitation station, Surface land meteorological station (SYNOP), Weather radar, RBON, RBSN(S) - deprecated, WRO, RBCN - deprecated, GBON, CLIMAT(C) - to be deprecated, GSN",39.7172,140.0994,https://oscar.wmo.int/surface/#/search/station/stationReportDetails/0-20000-0-47582
2,Asia,Japan,JPN,0-20001-0-47582,47582,1,AKITA (47582-1),39 43 03N,140 05 57E,,,6.30,,,,,,,,,,,,,,,,"Precipitation station, Upper-air / Radiosonde station, Weather radar, WRO, GBON, RBON, RBSN(T) - deprecated",39.7175,140.0992,https://oscar.wmo.int/surface/#/search/station/stationReportDetails/0-20001-0-47582
2,Asia,Japan,JPN,0-20000-0-47545,47545,0,AKITA AIRPORT,39 36 56N,140 13 07E,95.97,,92.97,,mean sea level,,,,,,,,,,,,,,"Surface land meteorological station (SYNOP), GOS General",39.6156,140.2186,https://oscar.wmo.int/surface/#/search/station/stationReportDetails/0-20000-0-47545
2,Asia,Japan,JPN,0-20000-0-47823,47823,0,AKUNE,32 01 40N,130 12 00E,42.13,,40.10,,mean sea level,,,,,,,,,,,,,,"Automatic weather station (AWS), Surface land meteorological station (SYNOP), GOS General",32.0278,130.2,https://oscar.wmo.int/surface/#/search/station/stationReportDetails/0-20000-0-47823
2,Asia,Japan,JPN,0-20000-0-47872,47872,0,AMAMI AIRPORT,28 25 51N,129 42 45E,7.27,,4.27,,mean sea level,,,,,,,,,,,,,,"Surface land meteorological station (SYNOP), GOS General",28.4308,129.7125,https://oscar.wmo.int/surface/#/search/station/stationReportDetails/0-20000-0-47872
2,Asia,Japan,JPN,0-20000-0-47575,47575,0,AOMORI,40 49 19N,140 46 08E,4.06,,2.80,,mean sea level,,,,,,,,,,,,,,"Automatic weather station (AWS), Climatological station, Surface land meteorological station (SYNOP), RBCN - deprecated, RBON, CLIMAT(C) - to be deprecated, GBON, RBSN(S) - deprecated",40.8219,140.7689,https://oscar.wmo.int/surface/#/search/station/stationReportDetails/0-20000-0-47575
2,Asia,Japan,JPN,0-20000-0-47542,47542,0,AOMORI AIRPORT,40 44 00N,140 41 19E,201.12,,198.12,,mean sea level,,,,,,,,,,,,,,"Surface land meteorological station (SYNOP), GOS General",40.7333,140.6886,https://oscar.wmo.int/surface/#/search/station/stationReportDetails/0-20000-0-47542
2,Asia,Japan,JPN,0-20000-0-47407,47407,0,ASAHIKAWA,43 45 25N,142 22 20E,140.30,,119.80,,mean sea level,,,,,,,,,,,,,,"Automatic weather station (AWS), Climatological station, Surface land meteorological station (SYNOP), CLIMAT(C) - to be deprecated, GBON, RBON, RBCN - deprecated, RBSN(S) - deprecated",43.7569,142.3722,https://oscar.wmo.int/surface/#/search/station/stationReportDetails/0-20000-0-47407
2,Asia,Japan,JPN,0-20000-0-47477,47477,0,ASAHIKAWA AB,43 47 40N,142 21 54E,117.91,,114.91,,mean sea level,,,,,,,,,,,,,,"Surface land meteorological station (SYNOP), GOS General",43.7944,142.365,https://oscar.wmo.int/surface/#/search/station/stationReportDetails/0-20000-0-47477
2,Asia,Japan,JPN,0-20000-0-47476,47476,0,ASAHIKAWA AIRPORT,43 40 15N,142 26 51E,213.32,,210.32,,mean sea level,,,,,,,,,,,,,,"Surface land meteorological station (SYNOP), GOS General",43.6708,142.4475,https://oscar.wmo.int/surface/#/search/station/stationReportDetails/0-20000-0-47476
2,Asia,Japan,JPN,0-20000-0-47803,47803,0,ASHIYA AB,33 52 53N,130 39 06E,32.87,,29.87,,mean sea level,,,,,,,,,,,,,,"Surface land meteorological station (SYNOP), GOS General",33.8814,130.6517,https://oscar.wmo.int/surface/#/search/station/stationReportDetails/0-20000-0-47803
2,Asia,Japan,JPN,0-20000-0-47679,47679,0,ATSUGI NAS,35 27 17N,139 27 00E,65.48,,62.48,,mean sea level,,,,,,,,,,,,,,"Surface land meteorological station (SYNOP), GOS General",35.4547,139.45,https://oscar.wmo.int/surface/#/search/station/stationReportDetails/0-20000-0-47679
2,Asia,Japan,JPN,0-20000-0-47682,47682,0,CHIBA,35 36 09N,140 06 16E,6.06,,3.47,,mean sea level,,,,,,,,,,,,,,"Automatic weather station (AWS), Surface land meteorological station (SYNOP), GOS General",35.6025,140.1044,https://oscar.wmo.int/surface/#/search/station/stationReportDetails/0-20000-0-47682
2,Asia,Japan,JPN,0-20000-0-47641,47641,0,CHICHIBU,35 59 24N,139 04 27E,233.70,,232.10,,mean sea level,,,,,,,,,,,,,,"Automatic weather station (AWS), Surface land meteorological station (SYNOP), GOS General",35.99,139.0742,https://oscar.wmo.int/surface/#/search/station/stationReportDetails/0-20000-0-47641
2,Asia,Japan,JPN,0-20000-0-47971,47971,0,CHICHIJIMA,27 05 32N,142 11 29E,8.30,,2.70,,mean sea level,,,,,,,,,,,,,,"Automatic weather station (AWS), Climatological station, Upper-air / Radiosonde station, Surface land meteorological station (SYNOP), RBON, RBCN - deprecated, CLIMAT(C) - to be deprecated, GBON, GUAN, GSN, RBSN(ST) - deprecated",27.0922,142.1914,https://oscar.wmo.int/surface/#/search/station/stationReportDetails/0-20000-0-47971
2,Asia,Japan,JPN,0-20000-0-47425,47425,0,CHITOSE AB,42 47 40N,141 39 59E,30.13,,27.13,,mean sea level,,,,,,,,,,,,,,"Surface land meteorological station (SYNOP), GOS General",42.7944,141.6664,https://oscar.wmo.int/surface/#/search/station/stationReportDetails/0-20000-0-47425
2,Asia,Japan,JPN,0-20000-0-47648,47648,0,CHOSHI,35 44 23N,140 51 26E,28.10,,20.10,,mean sea level,,,,,,,,,,,,,,"Automatic weather station (AWS), Climatological station, Surface land meteorological station (SYNOP), RBSN(S) - deprecated, GOS General, GBON, CLIMAT(C) - to be deprecated, RBCN - deprecated, GSN, RBON",35.7397,140.8572,https://oscar.wmo.int/surface/#/search/station/stationReportDetails/0-20000-0-47648
2,Asia,Japan,JPN,0-20000-0-47652,47652,0,CHUBU CENTRAIR INTERNATIONAL AIRPORT,34 51 30N,136 48 19E,6.66,,3.66,,mean sea level,,,,,,,,,,,,,,"Precipitation station, Surface land meteorological station (SYNOP), Weather radar, WRO, GOS General",34.8583,136.8053,https://oscar.wmo.int/surface/#/search/station/stationReportDetails/0-20000-0-47652
2,Asia,Japan,JPN,0-20000-0-47428,47428,0,ESASHI,41 52 02N,140 07 27E,12.13,,3.72,,mean sea level,,,,,,,,,,,,,,"Automatic weather station (AWS), Surface land meteorological station (SYNOP), GOS General",41.8672,140.1242,https://oscar.wmo.int/surface/#/search/station/stationReportDetails/0-20000-0-47428
2,Asia,Japan,JPN,0-20000-0-47721,47721,0,FUJI AB,35 18 58N,138 52 19E,688.80,,685.80,,,,,,,,,,,,,,,,"Surface land meteorological station (SYNOP), GOS General",35.3161,138.8719,https://oscar.wmo.int/surface/#/search/station/stationReportDetails/0-20000-0-47721
2,Asia,Japan,JPN,0-20000-0-47639,47639,0,FUJISAN,35 21 38N,138 43 38E,3777.50,,3775.10,,STATION,,,,,,,,,,,,,,"Automatic weather station (AWS), Surface land meteorological station (SYNOP), GOS General",35.3606,138.7272,https://oscar.wmo.int/surface/#/search/station/stationReportDetails/0-20000-0-47639
2,Asia,Japan,JPN,0-20000-0-47574,47574,0,FUKAURA,40 38 47N,139 55 59E,67.90,,66.10,,mean sea level,,,,,,,,,,,,,,"Automatic weather station (AWS), Surface land meteorological station (SYNOP), GOS General",40.6464,139.9331,https://oscar.wmo.int/surface/#/search/station/stationReportDetails/0-20000-0-47574
2,Asia,Japan,JPN,0-20000-0-47843,47843,0,FUKUE,32 41 41N,128 49 37E,26.80,,25.10,,mean sea level,,,,,,,,,,,,,,"Automatic weather station (AWS), Climatological station, Surface land meteorological station (SYNOP), GBON, RBON, CLIMAT(C) - to be deprecated, RBSN(S) - deprecated, RBCN - deprecated, GOS General",32.6947,128.8269,https://oscar.wmo.int/surface/#/search/station/stationReportDetails/0-20000-0-47843
2,Asia,Japan,JPN,0-20000-0-47844,47844,0,FUKUE AIRPORT,32 39 59N,128 49 58E,79.51,,76.51,,mean sea level,,,,,,,,,,,,,,"Surface land meteorological station (SYNOP), GOS General",32.6664,128.8328,https://oscar.wmo.int/surface/#/search/station/stationReportDetails/0-20000-0-47844
2,Asia,Japan,JPN,0-20000-0-47616,47616,0,FUKUI,36 03 20N,136 13 21E,17.42,,8.80,,mean sea level,,,,,,,,,,,,,,"Automatic weather station (AWS), Surface land meteorological station (SYNOP), GOS General",36.0556,136.2225,https://oscar.wmo.int/surface/#/search/station/stationReportDetails/0-20000-0-47616
2,Asia,Japan,JPN,0-20000-0-47705,47705,0,FUKUI/TOJIMBO,36 14 15N,136 08 32E,,,80.00,,,,,,,,,,,,,,,,"Precipitation station, Surface land meteorological station (SYNOP), Weather radar, GOS General, WRO",36.2375,136.1422,https://oscar.wmo.int/surface/#/search/station/stationReportDetails/0-20000-0-47705
2,Asia,Japan,JPN,0-20000-0-47807,47807,0,FUKUOKA,33 34 56N,130 22 35E,15.03,,2.50,,mean sea level,,,,,,,,,,,,,,"Automatic weather station (AWS), Climatological station, Upper-air / Radiosonde station, Surface land meteorological station (SYNOP), GBON, RBCN - deprecated, RBON, CLIMAT(C) - to be deprecated, RBSN(ST) - deprecated",33.5822,130.3764,https://oscar.wmo.int/surface/#/search/station/stationReportDetails/0-20000-0-47807
2,Asia,Japan,JPN,0-20000-0-47808,47808,0,FUKUOKA AIRPORT,33 35 04N,130 27 06E,12.15,,9.15,,mean sea level,,,,,,,,,,,,,,"Precipitation station, Surface land meteorological station (SYNOP), Weather radar, GOS General, WRO",33.5844,130.4517,https://oscar.wmo.int/surface/#/search/station/stationReportDetails/0-20000-0-47808
2,Asia,Japan,JPN,0-20000-0-47806,47806,0,FUKUOKA/SEFURISAN,33 26 05N,130 21 25E,,,970.00,,,,,,,,,,,,,,,,"Precipitation station, Surface land meteorological station (SYNOP), Weather radar, WRO, GOS General",33.4347,130.3569,https://oscar.wmo.int/surface/#/search/station/stationReportDetails/0-20000-0-47806
2,Asia,Japan,JPN,0-20000-0-47595,47595,0,FUKUSHIMA,37 45 34N,140 28 15E,69.25,,67.44,,mean sea level,,,,,,,,,,,,,,"Automatic weather station (AWS), Surface land meteorological station (SYNOP), GOS General",37.7594,140.4708,https://oscar.wmo.int/surface/#/search/station/stationReportDetails/0-20000-0-47595
2,Asia,Japan,JPN,0-20000-0-47557,47557,0,FUKUSHIMA AIRPORT,37 13 39N,140 25 41E,374.86,,371.86,,mean sea level,,,,,,,,,,,,,,"Surface land meteorological station (SYNOP), GOS General",37.2275,140.4281,https://oscar.wmo.int/surface/#/search/station/stationReportDetails/0-20000-0-47557
2,Asia,Japan,JPN,0-20000-0-47767,47767,0,FUKUYAMA,34 26 49N,133 14 51E,3.28,,1.58,,mean sea level,,,,,,,,,,,,,,"Automatic weather station (AWS), Surface land meteorological station (SYNOP), GOS General",34.4469,133.2475,https://oscar.wmo.int/surface/#/search/station/stationReportDetails/0-20000-0-47767
2,Asia,Japan,JPN,0-20000-0-47606,47606,0,FUSHIKI,36 47 32N,137 03 22E,13.10,,11.60,,mean sea level,,,,,,,,,,,,,,"Automatic weather station (AWS), Surface land meteorological station (SYNOP), GOS General",36.7922,137.0561,https://oscar.wmo.int/surface/#/search/station/stationReportDetails/0-20000-0-47606
2,Asia,Japan,JPN,0-20000-0-47933,47933,0,FUTENMA,26 16 28N,127 45 23E,78.29,,75.29,,mean sea level,,,,,,,,,,,,,,"Surface land meteorological station (SYNOP), GOS General",26.2744,127.7564,https://oscar.wmo.int/surface/#/search/station/stationReportDetails/0-20000-0-47933
2,Asia,Japan,JPN,0-20000-0-47632,47632,0,GIFU,35 24 01N,136 45 45E,17.40,,12.70,,mean sea level,,,,,,,,,,,,,,"Automatic weather station (AWS), Surface land meteorological station (SYNOP), GOS General",35.4003,136.7625,https://oscar.wmo.int/surface/#/search/station/stationReportDetails/0-20000-0-47632
2,Asia,Japan,JPN,0-20000-0-47634,47634,0,GIFU AB,35 23 40N,136 52 10E,42.01,,39.01,,mean sea level,,,,,,,,,,,,,,"Surface land meteorological station (SYNOP), GOS General",35.3944,136.8694,https://oscar.wmo.int/surface/#/search/station/stationReportDetails/0-20000-0-47634
2,Asia,Japan,JPN,0-20000-0-47404,47404,0,HABORO,44 21 48N,141 42 03E,9.60,,7.90,,mean sea level,,,,,,,,,,,,,,"Automatic weather station (AWS), Surface land meteorological station (SYNOP), GOS General",44.3633,141.7008,https://oscar.wmo.int/surface/#/search/station/stationReportDetails/0-20000-0-47404
2,Asia,Japan,JPN,0-20000-0-47678,47678,0,HACHIJOJIMA,33 07 18N,139 46 45E,152.60,,151.21,,mean sea level,,,,,,,,,,,,,,"Automatic weather station (AWS), Climatological station, Upper-air / Radiosonde station, Surface land meteorological station (SYNOP), CLIMAT(C) - to be deprecated, GOS General, GBON, RBON, RBCN - deprecated, RBSN(ST) - deprecated",33.1217,139.7792,https://oscar.wmo.int/surface/#/search/station/stationReportDetails/0-20000-0-47678
2,Asia,Japan,JPN,0-20000-0-47581,47581,0,HACHINOHE,40 31 39N,141 31 19E,28.54,,27.10,,mean sea level,,,,,,,,,,,,,,"Automatic weather station (AWS), Surface land meteorological station (SYNOP), GOS General",40.5275,141.5219,https://oscar.wmo.int/surface/#/search/station/stationReportDetails/0-20000-0-47581
2,Asia,Japan,JPN,0-20000-0-47515,47515,0,HACHINOHE AB,40 33 07N,141 28 02E,49.33,,46.33,,mean sea level,,,,,,,,,,,,,,"Surface land meteorological station (SYNOP), GOS General",40.5519,141.4672,https://oscar.wmo.int/surface/#/search/station/stationReportDetails/0-20000-0-47515
2,Asia,Japan,JPN,0-20000-0-47754,47754,0,HAGI,34 24 36N,131 24 22E,3.70,,2.20,,mean sea level,,,,,,,,,,,,,,"Automatic weather station (AWS), Surface land meteorological station (SYNOP), GOS General",34.41,131.4061,https://oscar.wmo.int/surface/#/search/station/stationReportDetails/0-20000-0-47754
2,Asia,Japan,JPN,0-20000-0-47430,47430,0,HAKODATE,41 49 00N,140 45 15E,43.90,,35.00,,mean sea level,,,,,,,,,,,,,,"Automatic weather station (AWS), Climatological station, Surface land meteorological station (SYNOP), RBSN(S) - deprecated, CLIMAT(C) - to be deprecated, RBCN - deprecated, RBON, GOS General, GBON",41.8167,140.7542,https://oscar.wmo.int/surface/#/search/station/stationReportDetails/0-20000-0-47430
2,Asia,Japan,JPN,0-20000-0-47488,47488,0,HAKODATE AIRPORT,41 46 12N,140 49 19E,37.11,,34.11,,mean sea level,,,,,,,,,,,,,,"Surface land meteorological station (SYNOP), GOS General",41.77,140.8219,https://oscar.wmo.int/surface/#/search/station/stationReportDetails/0-20000-0-47488
2,Asia,Japan,JPN,0-20000-0-47432,47432,0,HAKODATE/YOKOTSUDAKE,41 56 01N,140 46 53E,,,1111.30,,,,,,,,,,,,,,,,"Precipitation station, Surface land meteorological station (SYNOP), Weather radar, WRO, GOS General",41.9336,140.7814,https://oscar.wmo.int/surface/#/search/station/stationReportDetails/0-20000-0-47432
2,Asia,Japan,JPN,0-20000-0-47755,47755,0,HAMADA,34 53 48N,132 04 14E,20.82,,19.00,,mean sea level,,,,,,,,,,,,,,"Automatic weather station (AWS), Surface land meteorological station (SYNOP), GOS General",34.8967,132.0706,https://oscar.wmo.int/surface/#/search/station/stationReportDetails/0-20000-0-47755
2,Asia,Japan,JPN,0-20000-0-47654,47654,0,HAMAMATSU,34 45 14N,137 42 42E,47.69,,45.93,,mean sea level,,,,,,,,,,,,,,"Automatic weather station (AWS), Surface land meteorological station (SYNOP), GOS General",34.7539,137.7117,https://oscar.wmo.int/surface/#/search/station/stationReportDetails/0-20000-0-47654
2,Asia,Japan,JPN,0-20000-0-47549,47549,0,HANAMAKI AIRPORT,39 25 43N,141 08 07E,92.62,,89.62,,mean sea level,,,,,,,,,,,,,,"Surface land meteorological station (SYNOP), GOS General",39.4286,141.1353,https://oscar.wmo.int/surface/#/search/station/stationReportDetails/0-20000-0-47549
2,Asia,Japan,JPN,0-20000-0-47761,47761,0,HIKONE,35 16 33N,136 14 37E,92.80,,87.30,,mean sea level,,,,,,,,,,,,,,"Automatic weather station (AWS), Surface land meteorological station (SYNOP), GOS General",35.2758,136.2436,https://oscar.wmo.int/surface/#/search/station/stationReportDetails/0-20000-0-47761
2,Asia,Japan,JPN,0-20000-0-47769,47769,0,HIMEJI,34 50 22N,134 40 15E,39.70,,38.21,,mean sea level,,,,,,,,,,,,,,"Automatic weather station (AWS), Surface land meteorological station (SYNOP), GOS General",34.8394,134.6708,https://oscar.wmo.int/surface/#/search/station/stationReportDetails/0-20000-0-47769
2,Asia,Japan,JPN,0-20000-0-47805,47805,0,HIRADO,33 21 38N,129 33 05E,58.60,,57.80,,mean sea level,,,,,,,,,,,,,,"Automatic weather station (AWS), Surface land meteorological station (SYNOP), GOS General",33.3606,129.5514,https://oscar.wmo.int/surface/#/search/station/stationReportDetails/0-20000-0-47805
2,Asia,Japan,JPN,0-20000-0-47440,47440,0,HIROO,42 17 40N,143 19 00E,34.20,,32.40,,mean sea level,,,,,,,,,,,,,,"Automatic weather station (AWS), Surface land meteorological station (SYNOP), GOS General",42.2944,143.3167,https://oscar.wmo.int/surface/#/search/station/stationReportDetails/0-20000-0-47440
2,Asia,Japan,JPN,0-20000-0-47765,47765,0,HIROSHIMA,34 23 54N,132 27 46E,54.00,,3.60,,mean sea level,,,,,,,,,,,,,,"Automatic weather station (AWS), Climatological station, Surface land meteorological station (SYNOP), CLIMAT(C) - to be deprecated, RBCN - deprecated, RBSN(S) - deprecated, GBON, RBON",34.3983,132.4628,https://oscar.wmo.int/surface/#/search/station/stationReportDetails/0-20000-0-47765
2,Asia,Japan,JPN,0-20000-0-47789,47789,0,HIROSHIMA AIRPORT,34 26 10N,132 55 10E,334.02,,331.02,,mean sea level,,,,,,,,,,,,,,"Surface land meteorological station (SYNOP), GOS General",34.4361,132.9194,https://oscar.wmo.int/surface/#/search/station/stationReportDetails/0-20000-0-47789
2,Asia,Japan,JPN,0-20000-0-47792,47792,0,HIROSHIMA/HAIGAMINE,34 16 13N,132 35 36E,,,725.90,,,,,,,,,,,,,,,,"Precipitation station, Surface land meteorological station (SYNOP), Weather radar, WRO, GOS General",34.2703,132.5933,https://oscar.wmo.int/surface/#/search/station/stationReportDetails/0-20000-0-47792
2,Asia,Japan,JPN,0-20000-0-47814,47814,0,HITA,33 19 18N,130 55 45E,84.40,,82.90,,mean sea level,,,,,,,,,,,,,,"Automatic weather station (AWS), Surface land meteorological station (SYNOP), GOS General",33.3217,130.9292,https://oscar.wmo.int/surface/#/search/station/stationReportDetails/0-20000-0-47814
2,Asia,Japan,JPN,0-20000-0-47824,47824,0,HITOYOSHI,32 13 05N,130 45 19E,147.60,,145.80,,mean sea level,,,,,,,,,,,,,,"Automatic weather station (AWS), Surface land meteorological station (SYNOP), GOS General",32.2181,130.7553,https://oscar.wmo.int/surface/#/search/station/stationReportDetails/0-20000-0-47824
2,Asia,Japan,JPN,0-20000-0-47788,47788,0,HOFU AB,34 02 04N,131 32 47E,5.13,,2.13,,mean sea level,,,,,,,,,,,,,,"Surface land meteorological station (SYNOP), GOS General",34.0344,131.5464,https://oscar.wmo.int/surface/#/search/station/stationReportDetails/0-20000-0-47788
2,Asia,Japan,JPN,0-20000-0-47715,47715,0,HYAKURI AB,36 10 54N,140 24 53E,35.61,,32.61,,mean sea level,,,,,,,,,,,,,,"Surface land meteorological station (SYNOP), GOS General",36.1817,140.4147,https://oscar.wmo.int/surface/#/search/station/stationReportDetails/0-20000-0-47715
2,Asia,Japan,JPN,0-20000-0-47938,47938,0,IEJIMA (US BASE),26 43 00N,127 47 00E,,,73.00,,,,,,,,,,,,,,,,"Surface land meteorological station (SYNOP), GOS General",26.7167,127.7833,https://oscar.wmo.int/surface/#/search/station/stationReportDetails/0-20000-0-47938
2,Asia,Japan,JPN,0-20000-0-47637,47637,0,IIDA,35 31 24N,137 49 21E,528.90,,516.40,,mean sea level,,,,,,,,,,,,,,"Automatic weather station (AWS), Surface land meteorological station (SYNOP), GOS General",35.5233,137.8225,https://oscar.wmo.int/surface/#/search/station/stationReportDetails/0-20000-0-47637
2,Asia,Japan,JPN,0-20000-0-47809,47809,0,IIZUKA,33 39 09N,130 41 37E,37.90,,37.10,,mean sea level,,,,,,,,,,,,,,"Automatic weather station (AWS), Surface land meteorological station (SYNOP), GOS General",33.6525,130.6936,https://oscar.wmo.int/surface/#/search/station/stationReportDetails/0-20000-0-47809
2,Asia,Japan,JPN,0-20000-0-47653,47653,0,IRAKO,34 37 47N,137 05 38E,7.70,,6.20,,mean sea level,,,,,,,,,,,,,,"Automatic weather station (AWS), Surface land meteorological station (SYNOP), GOS General",34.6297,137.0939,https://oscar.wmo.int/surface/#/search/station/stationReportDetails/0-20000-0-47653
2,Asia,Japan,JPN,0-20000-0-47917,47917,0,IRIOMOTEJIMA,24 25 40N,123 45 56E,11.60,,10.30,,mean sea level,,,,,,,,,,,,,,"Automatic weather station (AWS), Surface land meteorological station (SYNOP), GOS General",24.4278,123.7656,https://oscar.wmo.int/surface/#/search/station/stationReportDetails/0-20000-0-47917
2,Asia,Japan,JPN,0-20000-0-47666,47666,0,IROZAKI,34 36 13N,138 50 34E,53.20,,52.20,,mean sea level,,,,,,,,,,,,,,"Automatic weather station (AWS), Surface land meteorological station (SYNOP), GOS General",34.6036,138.8428,https://oscar.wmo.int/surface/#/search/station/stationReportDetails/0-20000-0-47666
2,Asia,Japan,JPN,0-20000-0-47643,47643,0,IRUMA AB,35 50 31N,139 24 38E,92.92,,89.92,,mean sea level,,,,,,,,,,,,,,"Surface land meteorological station (SYNOP), GOS General",35.8419,139.4106,https://oscar.wmo.int/surface/#/search/station/stationReportDetails/0-20000-0-47643
2,Asia,Japan,JPN,0-20000-0-47918,47918,0,ISHIGAKIJIMA,24 20 12N,124 09 52E,14.81,,5.70,,mean sea level,,,,,,,,,,,,,,"Automatic weather station (AWS), Climatological station, Upper-air / Radiosonde station, Surface land meteorological station (SYNOP), CLIMAT(C) - to be deprecated, GOS General, GUAN, GBON, RBCN - deprecated, RBSN(ST) - deprecated, RBON",24.3367,124.1644,https://oscar.wmo.int/surface/#/search/station/stationReportDetails/0-20000-0-47918
2,Asia,Japan,JPN,0-20000-0-47920,47920,0,ISHIGAKIJIMA/OMOTODAKE,24 25 36N,124 10 56E,,,516.00,,,,,,,,,,,,,,,,"Precipitation station, Surface land meteorological station (SYNOP), Weather radar, GOS General, WRO",24.4267,124.1822,https://oscar.wmo.int/surface/#/search/station/stationReportDetails/0-20000-0-47920
2,Asia,Japan,JPN,0-20000-0-47592,47592,0,ISHINOMAKI,38 25 39N,141 17 58E,42.92,,42.50,,mean sea level,,,,,,,,,,,,,,"Automatic weather station (AWS), Surface land meteorological station (SYNOP), GOS General",38.4275,141.2994,https://oscar.wmo.int/surface/#/search/station/stationReportDetails/0-20000-0-47592
2,Asia,Japan,JPN,0-20000-0-47764,47764,0,IWAKUNI,34 08 42N,132 14 49E,6.05,,3.05,,mean sea level,,,,,,,,,,,,,,"Surface land meteorological station (SYNOP), GOS General",34.145,132.2469,https://oscar.wmo.int/surface/#/search/station/stationReportDetails/0-20000-0-47764
2,Asia,Japan,JPN,0-20000-0-47783,47783,0,IWAMI AIRPORT,34 40 35N,131 47 25E,56.95,,53.95,,mean sea level,,,,,,,,,,,,,,"Surface land meteorological station (SYNOP), GOS General",34.6764,131.7903,https://oscar.wmo.int/surface/#/search/station/stationReportDetails/0-20000-0-47783
2,Asia,Japan,JPN,0-20000-0-47413,47413,0,IWAMIZAWA,43 12 42N,141 47 09E,51.50,,42.30,,mean sea level,,,,,,,,,,,,,,"Automatic weather station (AWS), Surface land meteorological station (SYNOP), GOS General",43.2117,141.7858,https://oscar.wmo.int/surface/#/search/station/stationReportDetails/0-20000-0-47413
2,Asia,Japan,JPN,0-20000-0-47981,47981,0,IWOTO,24 47 03N,141 19 21E,120.00,,117.00,,mean sea level,,,,,,,,,,,,,,"Upper-air / Radiosonde station, Surface land meteorological station (SYNOP), GOS General",24.7842,141.3225,https://oscar.wmo.int/surface/#/search/station/stationReportDetails/0-20000-0-47981
2,Asia,Japan,JPN,0-20000-0-47800,47800,0,IZUHARA (47800-0),34 11 52N,129 17 31E,4.10,,3.65,,mean sea level,,,,,,,,,,,,,,"Automatic weather station (AWS), Climatological station, Surface land meteorological station (SYNOP), RBCN - deprecated, RBON, GBON, RBSN(S) - deprecated, CLIMAT(C) - to be deprecated",34.1978,129.2919,https://oscar.wmo.int/surface/#/search/station/stationReportDetails/0-20000-0-47800
2,Asia,Japan,JPN,0-20001-0-47800,47800,1,IZUHARA (47800-1),34 09 12N,129 13 22E,,,130.00,,,,,,,,,,,,,,,,GOS General,34.1533,129.2228,https://oscar.wmo.int/surface/#/search/station/stationReportDetails/0-20001-0-47800
2,Asia,Japan,JPN,0-20000-0-47790,47790,0,IZUMO AIRPORT,35 24 49N,132 53 24E,4.83,,1.83,,mean sea level,,,,,,,,,,,,,,"Surface land meteorological station (SYNOP), GOS General",35.4136,132.89,https://oscar.wmo.int/surface/#/search/station/stationReportDetails/0-20000-0-47790
2,Asia,Japan,JPN,0-20000-0-47931,47931,0,KADENA,26 21 20N,127 46 04E,46.59,,43.59,,mean sea level,,,,,,,,,,,,,,"Surface land meteorological station (SYNOP), GOS General",26.3556,127.7678,https://oscar.wmo.int/surface/#/search/station/stationReportDetails/0-20000-0-47931
2,Asia,Japan,JPN,0-20000-0-47827,47827,0,KAGOSHIMA,31 33 18N,130 32 53E,31.67,,3.90,,mean sea level,,,,,,,,,,,,,,"Automatic weather station (AWS), Climatological station, Upper-air / Radiosonde station, Surface land meteorological station (SYNOP), GUAN, GOS General, CLIMAT(C) - to be deprecated, RBSN(ST) - deprecated, GBON, RBCN - deprecated, RBON",31.555,130.5481,https://oscar.wmo.int/surface/#/search/station/stationReportDetails/0-20000-0-47827
2,Asia,Japan,JPN,0-20000-0-47851,47851,0,KAGOSHIMA AIRPORT,31 48 12N,130 43 10E,274.89,,271.89,,mean sea level,,,,,,,,,,,,,,"Precipitation station, Surface land meteorological station (SYNOP), Weather radar, GOS General, WRO",31.8033,130.7194,https://oscar.wmo.int/surface/#/search/station/stationReportDetails/0-20000-0-47851
2,Asia,Japan,JPN,0-20000-0-47848,47848,0,KAGOSHIMA/ICHIKI,31 42 33N,130 19 20E,,,25.00,,,,,,,,,,,,,,,,"Surface land meteorological station (SYNOP), GOS General",31.7092,130.3222,https://oscar.wmo.int/surface/#/search/station/stationReportDetails/0-20000-0-47848
2,Asia,Japan,JPN,0-20000-0-47628,47628,0,KAKIOKA,36 13 56N,140 11 11E,,,36.00,,,,,,,,,,,,,,,,"Surface land meteorological station (SYNOP), GOS General",36.2322,140.1864,https://oscar.wmo.int/surface/#/search/station/stationReportDetails/0-20000-0-47628
2,Asia,Japan,JPN,0-20000-0-47605,47605,0,KANAZAWA,36 35 23N,136 38 05E,33.70,,5.70,,mean sea level,,,,,,,,,,,,,,"Automatic weather station (AWS), Climatological station, Surface land meteorological station (SYNOP), RBON, CLIMAT(C) - to be deprecated, RBCN - deprecated, RBSN(S) - deprecated, GBON",36.5897,136.6347,https://oscar.wmo.int/surface/#/search/station/stationReportDetails/0-20000-0-47605
2,Asia,Japan,JPN,0-20000-0-47833,47833,0,KANOYA,31 25 27N,130 52 48E,,,107.00,,,,,,,,,,,,,,,,"Surface land meteorological station (SYNOP), GOS General",31.4242,130.88,https://oscar.wmo.int/surface/#/search/station/stationReportDetails/0-20000-0-47833
2,Asia,Japan,JPN,0-20000-0-47850,47850,0,KANOYA AB,31 22 05N,130 50 17E,68.23,,65.23,,mean sea level,,,,,,,,,,,,,,"Surface land meteorological station (SYNOP), GOS General",31.3681,130.8381,https://oscar.wmo.int/surface/#/search/station/stationReportDetails/0-20000-0-47850
2,Asia,Japan,JPN,0-20000-0-47774,47774,0,KANSAI INTERNATIONAL AIRPORT,34 26 03N,135 13 58E,8.31,,5.31,,mean sea level,,,,,,,,,,,,,,"Precipitation station, Surface land meteorological station (SYNOP), Weather radar, WRO, GOS General",34.4342,135.2328,https://oscar.wmo.int/surface/#/search/station/stationReportDetails/0-20000-0-47774
2,Asia,Japan,JPN,0-20000-0-47622,47622,0,KARUIZAWA,36 20 31N,138 32 50E,1000.58,,999.10,,850 HPA,,,,,,,,,,,,,,"Automatic weather station (AWS), Surface land meteorological station (SYNOP), GOS General",36.3419,138.5472,https://oscar.wmo.int/surface/#/search/station/stationReportDetails/0-20000-0-47622
2,Asia,Japan,JPN,0-20000-0-47716,47716,0,KASUMIGAURA AB,36 02 05N,140 11 34E,28.91,,25.91,,mean sea level,,,,,,,,,,,,,,"Surface land meteorological station (SYNOP), GOS General",36.0347,140.1928,https://oscar.wmo.int/surface/#/search/station/stationReportDetails/0-20000-0-47716
2,Asia,Japan,JPN,0-20000-0-47567,47567,0,KASUMINOME AB,38 14 08N,140 55 23E,10.01,,7.01,,mean sea level,,,,,,,,,,,,,,"Surface land meteorological station (SYNOP), GOS General",38.2356,140.9231,https://oscar.wmo.int/surface/#/search/station/stationReportDetails/0-20000-0-47567
2,Asia,Japan,JPN,0-20000-0-47674,47674,0,KATSUURA,35 09 03N,140 18 44E,13.50,,11.90,,mean sea level,,,,,,,,,,,,,,"Automatic weather station (AWS), Surface land meteorological station (SYNOP), GOS General",35.1508,140.3122,https://oscar.wmo.int/surface/#/search/station/stationReportDetails/0-20000-0-47674
2,Asia,Japan,JPN,0-20000-0-47640,47640,0,KAWAGUCHIKO,35 30 02N,138 45 39E,861.30,,859.60,,850 HPA,,,,,,,,,,,,,,"Automatic weather station (AWS), Surface land meteorological station (SYNOP), GOS General",35.5006,138.7608,https://oscar.wmo.int/surface/#/search/station/stationReportDetails/0-20000-0-47640
2,Asia,Japan,JPN,0-20000-0-47661,47661,0,KISARAZU AB,35 23 54N,139 54 35E,6.05,,3.05,,mean sea level,,,,,,,,,,,,,,"Surface land meteorological station (SYNOP), GOS General",35.3983,139.9097,https://oscar.wmo.int/surface/#/search/station/stationReportDetails/0-20000-0-47661
2,Asia,Japan,JPN,0-20000-0-47853,47853,0,KITAKYUSHU AIRPORT,33 50 44N,131 02 06E,9.41,,6.41,,mean sea level,,,,,,,,,,,,,,"Surface land meteorological station (SYNOP), GOS General",33.8456,131.035,https://oscar.wmo.int/surface/#/search/station/stationReportDetails/0-20000-0-47853
2,Asia,Japan,JPN,0-20000-0-47402,47402,0,KITAMIESASHI,44 56 24N,142 35 06E,8.37,,6.70,,mean sea level,,,,,,,,,,,,,,"Automatic weather station (AWS), Surface land meteorological station (SYNOP), GOS General",44.94,142.585,https://oscar.wmo.int/surface/#/search/station/stationReportDetails/0-20000-0-47402
2,Asia,Japan,JPN,0-20000-0-47644,47644,0,KIYOSE,35 46 39N,139 31 58E,,,,,,,,,,,,,,,,,,,"Surface land meteorological station (SYNOP), GOS General",35.7775,139.5328,https://oscar.wmo.int/surface/#/search/station/stationReportDetails/0-20000-0-47644
2,Asia,Japan,JPN,0-20000-0-47770,47770,0,KOBE,34 41 49N,135 12 46E,30.60,,5.30,,mean sea level,,,,,,,,,,,,,,"Automatic weather station (AWS), Surface land meteorological station (SYNOP), GOS General",34.6969,135.2128,https://oscar.wmo.int/surface/#/search/station/stationReportDetails/0-20000-0-47770
2,Asia,Japan,JPN,0-20000-0-47796,47796,0,KOBE AIRPORT,34 37 58N,135 13 26E,8.49,,5.49,,mean sea level,,,,,,,,,,,,,,"Surface land meteorological station (SYNOP), GOS General",34.6328,135.2239,https://oscar.wmo.int/surface/#/search/station/stationReportDetails/0-20000-0-47796
2,Asia,Japan,JPN,0-20000-0-47893,47893,0,KOCHI (47893-0),33 34 05N,133 32 58E,4.90,,0.50,,mean sea level,,,,,,,,,,,,,,"Automatic weather station (AWS), Climatological station, Surface land meteorological station (SYNOP), RBSN(S) - deprecated, RBCN - deprecated, RBON, GBON, GOS General, CLIMAT(C) - to be deprecated",33.5681,133.5494,https://oscar.wmo.int/surface/#/search/station/stationReportDetails/0-20000-0-47893
2,Asia,Japan,JPN,0-20001-0-47893,47893,1,KOCHI (47893-1),33 34 06N,133 32 57E,,,3.00,,,,,,,,,,,,,,,,GOS General,33.5683,133.5492,https://oscar.wmo.int/surface/#/search/station/stationReportDetails/0-20001-0-47893
2,Asia,Japan,JPN,0-20000-0-47883,47883,0,KOCHI AIRPORT,33 32 46N,133 40 10E,11.84,,8.84,,mean sea level,,,,,,,,,,,,,,"Surface land meteorological station (SYNOP), GOS General",33.5461,133.6694,https://oscar.wmo.int/surface/#/search/station/stationReportDetails/0-20000-0-47883
2,Asia,Japan,JPN,0-20000-0-47638,47638,0,KOFU,35 40 02N,138 33 14E,281.50,,272.80,,mean sea level,,,,,,,,,,,,,,"Automatic weather station (AWS), Surface land meteorological station (SYNOP), GOS General",35.6672,138.5539,https://oscar.wmo.int/surface/#/search/station/stationReportDetails/0-20000-0-47638
2,Asia,Japan,JPN,0-20000-0-47704,47704,0,KOMATSU AB,36 23 38N,136 24 27E,9.71,,6.71,,mean sea level,,,,,,,,,,,,,,"Surface land meteorological station (SYNOP), GOS General",36.3939,136.4075,https://oscar.wmo.int/surface/#/search/station/stationReportDetails/0-20000-0-47704
2,Asia,Japan,JPN,0-20000-0-47884,47884,0,KOMATSUSHIMA AB,34 00 19N,134 37 35E,5.74,,2.74,,mean sea level,,,,,,,,,,,,,,"Surface land meteorological station (SYNOP), GOS General",34.0053,134.6264,https://oscar.wmo.int/surface/#/search/station/stationReportDetails/0-20000-0-47884
2,Asia,Japan,JPN,0-20000-0-47626,47626,0,KUMAGAYA,36 09 01N,139 22 50E,31.77,,30.00,,mean sea level,,,,,,,,,,,,,,"Automatic weather station (AWS), Surface land meteorological station (SYNOP), GOS General",36.1503,139.3806,https://oscar.wmo.int/surface/#/search/station/stationReportDetails/0-20000-0-47626
2,Asia,Japan,JPN,0-20000-0-47819,47819,0,KUMAMOTO,32 48 49N,130 42 25E,39.30,,37.72,,mean sea level,,,,,,,,,,,,,,"Automatic weather station (AWS), Surface land meteorological station (SYNOP), GOS General",32.8136,130.7069,https://oscar.wmo.int/surface/#/search/station/stationReportDetails/0-20000-0-47819
2,Asia,Japan,JPN,0-20000-0-47856,47856,0,KUMAMOTO AIRPORT,32 50 14N,130 51 19E,195.64,,192.64,,mean sea level,,,,,,,,,,,,,,"Surface land meteorological station (SYNOP), GOS General",32.8372,130.8553,https://oscar.wmo.int/surface/#/search/station/stationReportDetails/0-20000-0-47856
2,Asia,Japan,JPN,0-20000-0-47929,47929,0,KUMEJIMA,26 20 17N,126 48 14E,6.00,,4.60,,mean sea level,,,,,,,,,,,,,,"Automatic weather station (AWS), Surface land meteorological station (SYNOP), GOS General",26.3381,126.8039,https://oscar.wmo.int/surface/#/search/station/stationReportDetails/0-20000-0-47929
2,Asia,Japan,JPN,0-20000-0-47766,47766,0,KURE,34 14 28N,132 33 01E,5.00,,3.50,,mean sea level,,,,,,,,,,,,,,"Automatic weather station (AWS), Surface land meteorological station (SYNOP), GOS General",34.2411,132.5503,https://oscar.wmo.int/surface/#/search/station/stationReportDetails/0-20000-0-47766
2,Asia,Japan,JPN,0-20000-0-47418,47418,0,KUSHIRO (47418-0),42 59 10N,144 22 38E,39.80,,4.50,,mean sea level,,,,,,,,,,,,,,"Automatic weather station (AWS), Climatological station, Surface land meteorological station (SYNOP), CLIMAT(C) - to be deprecated, RBCN - deprecated, RBSN(S) - deprecated, GOS General, GBON, RBON",42.9861,144.3772,https://oscar.wmo.int/surface/#/search/station/stationReportDetails/0-20000-0-47418
2,Asia,Japan,JPN,0-20001-0-47418,47418,1,KUSHIRO (47418-1),42 57 11N,144 26 15E,,,14.00,,,,,,,,,,,,,,,,"Upper-air / Radiosonde station, RBON, RBSN(T) - deprecated, GBON",42.9531,144.4375,https://oscar.wmo.int/surface/#/search/station/stationReportDetails/0-20001-0-47418
2,Asia,Japan,JPN,0-20000-0-47489,47489,0,KUSHIRO AIRPORT,43 02 27N,144 11 35E,97.80,,94.80,,mean sea level,,,,,,,,,,,,,,"Surface land meteorological station (SYNOP), GOS General",43.0408,144.1931,https://oscar.wmo.int/surface/#/search/station/stationReportDetails/0-20000-0-47489
2,Asia,Japan,JPN,0-20000-0-47419,47419,0,KUSHIRO/KOMBUMORI,42 57 39N,144 31 03E,,,97.50,,,,,,,,,,,,,,,,"Precipitation station, Surface land meteorological station (SYNOP), Weather radar, GOS General, WRO",42.9608,144.5175,https://oscar.wmo.int/surface/#/search/station/stationReportDetails/0-20000-0-47419
2,Asia,Japan,JPN,0-20000-0-47433,47433,0,KUTCHAN,42 54 04N,140 45 29E,188.10,,176.10,,mean sea level,,,,,,,,,,,,,,"Automatic weather station (AWS), Surface land meteorological station (SYNOP), GOS General",42.9011,140.7581,https://oscar.wmo.int/surface/#/search/station/stationReportDetails/0-20000-0-47433
2,Asia,Japan,JPN,0-20000-0-47759,47759,0,KYOTO,35 00 53N,135 43 58E,52.60,,40.81,,mean sea level,,,,,,,,,,,,,,"Automatic weather station (AWS), Surface land meteorological station (SYNOP), GOS General",35.0147,135.7328,https://oscar.wmo.int/surface/#/search/station/stationReportDetails/0-20000-0-47759
2,Asia,Japan,JPN,0-20000-0-47624,47624,0,MAEBASHI,36 24 19N,139 03 38E,113.70,,112.10,,mean sea level,,,,,,,,,,,,,,"Automatic weather station (AWS), Climatological station, Surface land meteorological station (SYNOP), CLIMAT(C) - to be deprecated, RBON, RBCN - deprecated, RBSN(S) - deprecated, GBON",36.4053,139.0606,https://oscar.wmo.int/surface/#/search/station/stationReportDetails/0-20000-0-47624
2,Asia,Japan,JPN,0-20000-0-47750,47750,0,MAIZURU,35 27 01N,135 19 05E,4.24,,2.42,,mean sea level,,,,,,,,,,,,,,"Automatic weather station (AWS), Climatological station, Surface land meteorological station (SYNOP), CLIMAT(C) - to be deprecated, GOS General, RBCN - deprecated, RBSN(S) - deprecated, GBON, RBON",35.4503,135.3181,https://oscar.wmo.int/surface/#/search/station/stationReportDetails/0-20000-0-47750
2,Asia,Japan,JPN,0-20000-0-47749,47749,0,MAIZURU AB,35 29 25N,135 22 38E,8.91,,5.91,,mean sea level,,,,,,,,,,,,,,"Surface land meteorological station (SYNOP), GOS General",35.4903,135.3772,https://oscar.wmo.int/surface/#/search/station/stationReportDetails/0-20000-0-47749
2,Asia,Japan,JPN,0-20000-0-47831,47831,0,MAKURAZAKI,31 16 19N,130 17 35E,31.40,,29.50,,mean sea level,,,,,,,,,,,,,,"Automatic weather station (AWS), Surface land meteorological station (SYNOP), GOS General",31.2719,130.2931,https://oscar.wmo.int/surface/#/search/station/stationReportDetails/0-20000-0-47831
2,Asia,Japan,JPN,0-20000-0-47741,47741,0,MATSUE,35 27 26N,133 03 56E,22.40,,16.90,,mean sea level,,,,,,,,,,,,,,"Automatic weather station (AWS), Climatological station, Upper-air / Radiosonde station, Surface land meteorological station (SYNOP), RBSN(ST) - deprecated, RBON, RBCN - deprecated, CLIMAT(C) - to be deprecated, GBON",35.4572,133.0656,https://oscar.wmo.int/surface/#/search/station/stationReportDetails/0-20000-0-47741
2,Asia,Japan,JPN,0-20000-0-47791,47791,0,MATSUE/MISAKAYAMA,35 32 30N,133 06 12E,,,532.50,,,,,,,,,,,,,,,,"Precipitation station, Surface land meteorological station (SYNOP), Weather radar, WRO, GOS General",35.5417,133.1033,https://oscar.wmo.int/surface/#/search/station/stationReportDetails/0-20000-0-47791
2,Asia,Japan,JPN,0-20000-0-47618,47618,0,MATSUMOTO,36 14 48N,137 58 14E,611.60,,610.00,,mean sea level,,,,,,,,,,,,,,"Automatic weather station (AWS), Surface land meteorological station (SYNOP), GOS General",36.2467,137.9706,https://oscar.wmo.int/surface/#/search/station/stationReportDetails/0-20000-0-47618
2,Asia,Japan,JPN,0-20000-0-47709,47709,0,MATSUMOTO AIRPORT,36 10 00N,137 55 22E,660.46,,657.46,,mean sea level,,,,,,,,,,,,,,"Surface land meteorological station (SYNOP), GOS General",36.1667,137.9228,https://oscar.wmo.int/surface/#/search/station/stationReportDetails/0-20000-0-47709
2,Asia,Japan,JPN,0-20000-0-47591,47591,0,MATSUSHIMA AB,38 24 11N,141 12 43E,5.13,,2.13,,mean sea level,,,,,,,,,,,,,,"Surface land meteorological station (SYNOP), GOS General",38.4031,141.2119,https://oscar.wmo.int/surface/#/search/station/stationReportDetails/0-20000-0-47591
2,Asia,Japan,JPN,0-20000-0-47685,47685,0,MATSUSHIRO,36 32 45N,138 12 14E,,,405.90,,,,,,,,,,,,,,,,"Surface land meteorological station (SYNOP), GOS General",36.5458,138.2039,https://oscar.wmo.int/surface/#/search/station/stationReportDetails/0-20000-0-47685
2,Asia,Japan,JPN,0-20000-0-47887,47887,0,MATSUYAMA,33 50 36N,132 46 38E,34.27,,32.16,,mean sea level,,,,,,,,,,,,,,"Automatic weather station (AWS), Climatological station, Surface land meteorological station (SYNOP), RBCN - deprecated, GOS General, RBSN(S) - deprecated, CLIMAT(C) - to be deprecated, RBON, GBON",33.8433,132.7772,https://oscar.wmo.int/surface/#/search/station/stationReportDetails/0-20000-0-47887
2,Asia,Japan,JPN,0-20000-0-47882,47882,0,MATSUYAMA AIRPORT,33 49 38N,132 41 59E,6.97,,3.97,,mean sea level,,,,,,,,,,,,,,"Surface land meteorological station (SYNOP), GOS General",33.8272,132.6997,https://oscar.wmo.int/surface/#/search/station/stationReportDetails/0-20000-0-47882
2,Asia,Japan,JPN,0-20000-0-47480,47480,0,MEMAMBETSU,43 54 36N,144 11 19E,,,42.00,,,,,,,,,,,,,,,,"Surface land meteorological station (SYNOP), GOS General",43.91,144.1886,https://oscar.wmo.int/surface/#/search/station/stationReportDetails/0-20000-0-47480
2,Asia,Japan,JPN,0-20000-0-47481,47481,0,MEMAMBETSU AIRPORT,43 52 50N,144 09 51E,36.22,,33.22,,mean sea level,,,,,,,,,,,,,,"Surface land meteorological station (SYNOP), GOS General",43.8806,144.1642,https://oscar.wmo.int/surface/#/search/station/stationReportDetails/0-20000-0-47481
2,Asia,Japan,JPN,0-20000-0-47860,47860,0,METABARU AB,33 19 31N,130 24 49E,19.15,,16.15,,mean sea level,,,,,,,,,,,,,,"Surface land meteorological station (SYNOP), GOS General",33.3253,130.4136,https://oscar.wmo.int/surface/#/search/station/stationReportDetails/0-20000-0-47860
2,Asia,Japan,JPN,0-20000-0-47743,47743,0,MIHO AB,35 29 36N,133 14 21E,6.96,,3.96,,mean sea level,,,,,,,,,,,,,,"Surface land meteorological station (SYNOP), GOS General",35.4933,133.2392,https://oscar.wmo.int/surface/#/search/station/stationReportDetails/0-20000-0-47743
2,Asia,Japan,JPN,0-20000-0-47945,47945,0,MINAMIDAITOJIMA,25 49 44N,131 13 43E,20.60,,15.30,,mean sea level,,,,,,,,,,,,,,"Automatic weather station (AWS), Climatological station, Upper-air / Radiosonde station, Surface land meteorological station (SYNOP), GSN, RBON, CLIMAT(C) - to be deprecated, RBSN(ST) - deprecated, RBCN - deprecated, GBON",25.8289,131.2286,https://oscar.wmo.int/surface/#/search/station/stationReportDetails/0-20000-0-47945
2,Asia,Japan,JPN,0-20000-0-47991,47991,0,MINAMITORISHIMA,24 17 18N,153 59 00E,8.69,,7.10,,mean sea level,,,,,,,,,,,,,,"Automatic weather station (AWS), Climatological station, Upper-air / Radiosonde station, Surface land meteorological station (SYNOP), CLIMAT(C) - to be deprecated, GUAN, GSN, GBON, RBSN(ST) - deprecated, RBON, RBCN - deprecated",24.2883,153.9833,https://oscar.wmo.int/surface/#/search/station/stationReportDetails/0-20000-0-47991
2,Asia,Japan,JPN,0-20000-0-47657,47657,0,MISHIMA,35 06 50N,138 55 31E,21.90,,20.50,,mean sea level,,,,,,,,,,,,,,"Automatic weather station (AWS), Surface land meteorological station (SYNOP), GOS General",35.1139,138.9253,https://oscar.wmo.int/surface/#/search/station/stationReportDetails/0-20000-0-47657
2,Asia,Japan,JPN,0-20000-0-47629,47629,0,MITO,36 22 52N,140 28 05E,31.00,,29.00,,mean sea level,,,,,,,,,,,,,,"Automatic weather station (AWS), Climatological station, Surface land meteorological station (SYNOP), CLIMAT(C) - to be deprecated, RBCN - deprecated, RBSN(S) - deprecated, RBON, GBON, GOS General",36.3811,140.4681,https://oscar.wmo.int/surface/#/search/station/stationReportDetails/0-20000-0-47629
2,Asia,Japan,JPN,0-20000-0-47677,47677,0,MIYAKEJIMA,34 07 26N,139 31 17E,39.90,,38.20,,mean sea level,,,,,,,,,,,,,,"Automatic weather station (AWS), Surface land meteorological station (SYNOP), GOS General",34.1239,139.5214,https://oscar.wmo.int/surface/#/search/station/stationReportDetails/0-20000-0-47677
2,Asia,Japan,JPN,0-20000-0-47585,47585,0,MIYAKO,39 38 49N,141 57 57E,47.00,,42.47,,mean sea level,,,,,,,,,,,,,,"Automatic weather station (AWS), Surface land meteorological station (SYNOP), GOS General",39.6469,141.9658,https://oscar.wmo.int/surface/#/search/station/stationReportDetails/0-20000-0-47585
2,Asia,Japan,JPN,0-20000-0-47926,47926,0,MIYAKO AIRPORT,24 46 58N,125 17 42E,45.68,,42.68,,mean sea level,,,,,,,,,,,,,,"Surface land meteorological station (SYNOP), GOS General",24.7828,125.295,https://oscar.wmo.int/surface/#/search/station/stationReportDetails/0-20000-0-47926
2,Asia,Japan,JPN,0-20000-0-47927,47927,0,MIYAKOJIMA,24 47 40N,125 16 42E,40.20,,38.50,,mean sea level,,,,,,,,,,,,,,"Automatic weather station (AWS), Climatological station, Surface land meteorological station (SYNOP), RBON, GSN, RBCN - deprecated, GBON, CLIMAT(C) - to be deprecated, RBSN(S) - deprecated",24.7944,125.2783,https://oscar.wmo.int/surface/#/search/station/stationReportDetails/0-20000-0-47927
2,Asia,Japan,JPN,0-20000-0-47829,47829,0,MIYAKONOJO,31 43 48N,131 04 54E,155.70,,153.80,,mean sea level,,,,,,,,,,,,,,"Automatic weather station (AWS), Surface land meteorological station (SYNOP), GOS General",31.73,131.0817,https://oscar.wmo.int/surface/#/search/station/stationReportDetails/0-20000-0-47829
2,Asia,Japan,JPN,0-20000-0-47830,47830,0,MIYAZAKI,31 56 18N,131 24 51E,15.00,,9.20,,mean sea level,,,,,,,,,,,,,,"Automatic weather station (AWS), Climatological station, Surface land meteorological station (SYNOP), RBON, RBSN(S) - deprecated, CLIMAT(C) - to be deprecated, RBCN - deprecated, GBON",31.9383,131.4142,https://oscar.wmo.int/surface/#/search/station/stationReportDetails/0-20000-0-47830
2,Asia,Japan,JPN,0-20000-0-47857,47857,0,MIYAZAKI AIRPORT,31 52 38N,131 26 55E,8.80,,5.80,,mean sea level,,,,,,,,,,,,,,"Surface land meteorological station (SYNOP), GOS General",31.8772,131.4486,https://oscar.wmo.int/surface/#/search/station/stationReportDetails/0-20000-0-47857
2,Asia,Japan,JPN,0-20000-0-47435,47435,0,MOMBETSU,44 20 42N,143 21 19E,17.60,,15.80,,mean sea level,,,,,,,,,,,,,,"Automatic weather station (AWS), Surface land meteorological station (SYNOP), GOS General",44.345,143.3553,https://oscar.wmo.int/surface/#/search/station/stationReportDetails/0-20000-0-47435
2,Asia,Japan,JPN,0-20000-0-47474,47474,0,MOMBETSU AIRPORT,44 18 15N,143 24 15E,20.68,,17.68,,mean sea level,,,,,,,,,,,,,,"Surface land meteorological station (SYNOP), GOS General",44.3042,143.4042,https://oscar.wmo.int/surface/#/search/station/stationReportDetails/0-20000-0-47474
2,Asia,Japan,JPN,0-20000-0-47584,47584,0,MORIOKA,39 41 55N,141 09 57E,155.40,,155.20,,mean sea level,,,,,,,,,,,,,,"Automatic weather station (AWS), Climatological station, Surface land meteorological station (SYNOP), RBCN - deprecated, RBON, CLIMAT(C) - to be deprecated, GBON, RBSN(S) - deprecated",39.6986,141.1658,https://oscar.wmo.int/surface/#/search/station/stationReportDetails/0-20000-0-47584
2,Asia,Japan,JPN,0-20000-0-47423,47423,0,MURORAN (47423-0),42 18 42N,140 58 31E,49.80,,39.89,,mean sea level,,,,,,,,,,,,,,"Automatic weather station (AWS), Surface land meteorological station (SYNOP), GOS General",42.3117,140.9753,https://oscar.wmo.int/surface/#/search/station/stationReportDetails/0-20000-0-47423
2,Asia,Japan,JPN,0-20001-0-47423,47423,1,MURORAN (47423-1),42 19 25N,140 58 12E,,,3.00,,,,,,,,,,,,,,,,GOS General,42.3236,140.97,https://oscar.wmo.int/surface/#/search/station/stationReportDetails/0-20001-0-47423
2,Asia,Japan,JPN,0-20000-0-47899,47899,0,MUROTOMISAKI (47899-0),33 15 08N,134 10 38E,186.83,,185.00,,mean sea level,,,,,,,,,,,,,,"Automatic weather station (AWS), Precipitation station, Surface land meteorological station (SYNOP), Weather radar, GOS General, WRO",33.2522,134.1772,https://oscar.wmo.int/surface/#/search/station/stationReportDetails/0-20000-0-47899
2,Asia,Japan,JPN,0-20000-0-47576,47576,0,MUTSU,41 17 00N,141 12 41E,4.83,,2.90,,mean sea level,,,,,,,,,,,,,,"Automatic weather station (AWS), Surface land meteorological station (SYNOP), GOS General",41.2833,141.2114,https://oscar.wmo.int/surface/#/search/station/stationReportDetails/0-20000-0-47576
2,Asia,Japan,JPN,0-20000-0-47610,47610,0,NAGANO,36 39 46N,138 11 33E,419.90,,418.20,,mean sea level,,,,,,,,,,,,,,"Automatic weather station (AWS), Climatological station, Surface land meteorological station (SYNOP), GBON, CLIMAT(C) - to be deprecated, RBSN(S) - deprecated, RBON, RBCN - deprecated",36.6628,138.1925,https://oscar.wmo.int/surface/#/search/station/stationReportDetails/0-20000-0-47610
2,Asia,Japan,JPN,0-20000-0-47611,47611,0,NAGANO/KURUMAYAMA,36 06 11N,138 11 45E,,,1924.70,,,,,,,,,,,,,,,,"Precipitation station, Surface land meteorological station (SYNOP), Weather radar, WRO, GOS General",36.1031,138.1958,https://oscar.wmo.int/surface/#/search/station/stationReportDetails/0-20000-0-47611
2,Asia,Japan,JPN,0-20000-0-47817,47817,0,NAGASAKI,32 44 03N,129 52 05E,36.00,,26.90,,mean sea level,,,,,,,,,,,,,,"Automatic weather station (AWS), Climatological station, Surface land meteorological station (SYNOP), GSN, CLIMAT(C) - to be deprecated, GBON, RBCN - deprecated, RBON, RBSN(S) - deprecated, GOS General",32.7342,129.8681,https://oscar.wmo.int/surface/#/search/station/stationReportDetails/0-20000-0-47817
2,Asia,Japan,JPN,0-20000-0-47855,47855,0,NAGASAKI AIRPORT,32 55 01N,129 54 49E,5.44,,2.44,,mean sea level,,,,,,,,,,,,,,"Surface land meteorological station (SYNOP), GOS General",32.9169,129.9136,https://oscar.wmo.int/surface/#/search/station/stationReportDetails/0-20000-0-47855
2,Asia,Japan,JPN,0-20000-0-47940,47940,0,NAGO,26 35 39N,127 57 59E,7.40,,6.20,,mean sea level,,,,,,,,,,,,,,"Automatic weather station (AWS), Surface land meteorological station (SYNOP), GOS General",26.5942,127.9664,https://oscar.wmo.int/surface/#/search/station/stationReportDetails/0-20000-0-47940
2,Asia,Japan,JPN,0-20000-0-47636,47636,0,NAGOYA (47636-0),35 10 04N,136 57 56E,56.40,,51.10,,mean sea level,,,,,,,,,,,,,,"Automatic weather station (AWS), Climatological station, Precipitation station, Surface land meteorological station (SYNOP), Weather radar, CLIMAT(C) - to be deprecated, RBCN - deprecated, GOS General, GBON, WRO, RBSN(S) - deprecated, RBON",35.1678,136.9656,https://oscar.wmo.int/surface/#/search/station/stationReportDetails/0-20000-0-47636
2,Asia,Japan,JPN,0-20000-0-47936,47936,0,NAHA,26 12 26N,127 41 14E,50.06,,28.06,,mean sea level,,,,,,,,,,,,,,"Automatic weather station (AWS), Climatological station, Surface land meteorological station (SYNOP), GSN, RBCN - deprecated, RBON, RBSN(S) - deprecated, GOS General, GBON, CLIMAT(C) - to be deprecated",26.2072,127.6872,https://oscar.wmo.int/surface/#/search/station/stationReportDetails/0-20000-0-47936
2,Asia,Japan,JPN,0-20000-0-47930,47930,0,NAHA AIRPORT,26 11 45N,127 38 45E,6.36,,3.36,,mean sea level,,,,,,,,,,,,,,"Precipitation station, Surface land meteorological station (SYNOP), Weather radar, GOS General, WRO",26.1958,127.6458,https://oscar.wmo.int/surface/#/search/station/stationReportDetails/0-20000-0-47930
2,Asia,Japan,JPN,0-20000-0-47937,47937,0,NAHA/ITOKAZU,26 09 12N,127 45 52E,,,186.40,,,,,,,,,,,,,,,,"Precipitation station, Surface land meteorological station (SYNOP), Weather radar, WRO, GOS General",26.1533,127.7644,https://oscar.wmo.int/surface/#/search/station/stationReportDetails/0-20000-0-47937
2,Asia,Japan,JPN,0-20000-0-47483,47483,0,NAKASHIBETSU AIRPORT,43 34 39N,144 57 36E,68.23,,65.23,,mean sea level,,,,,,,,,,,,,,"Surface land meteorological station (SYNOP), GOS General",43.5775,144.96,https://oscar.wmo.int/surface/#/search/station/stationReportDetails/0-20000-0-47483
2,Asia,Japan,JPN,0-20000-0-47782,47782,0,NANKISHIRAHAMA AIRPORT,33 39 44N,135 21 52E,92.31,,89.31,,mean sea level,,,,,,,,,,,,,,"Surface land meteorological station (SYNOP), GOS General",33.6622,135.3644,https://oscar.wmo.int/surface/#/search/station/stationReportDetails/0-20000-0-47782
2,Asia,Japan,JPN,0-20000-0-47780,47780,0,NARA (47780-0),34 40 25N,135 50 17E,103.77,,102.12,,,,,,,,,,,,,,,,"Automatic weather station (AWS), Surface land meteorological station (SYNOP), GOS General",34.6736,135.8381,https://oscar.wmo.int/surface/#/search/station/stationReportDetails/0-20000-0-47780
2,Asia,Japan,JPN,0-20000-0-47686,47686,0,NARITA INTERNATIONAL AIRPORT,35 45 55N,140 23 08E,44.15,,41.15,,mean sea level,,,,,,,,,,,,,,"Precipitation station, Surface land meteorological station (SYNOP), Weather radar, WRO, GOS General",35.7653,140.3856,https://oscar.wmo.int/surface/#/search/station/stationReportDetails/0-20000-0-47686
2,Asia,Japan,JPN,0-20000-0-47909,47909,0,NAZE,28 22 47N,129 29 44E,7.90,,2.80,,mean sea level,,,,,,,,,,,,,,"Automatic weather station (AWS), Climatological station, Precipitation station, Surface land meteorological station (SYNOP), Weather radar, RBCN - deprecated, GOS General, CLIMAT(C) - to be deprecated, RBON, WRO, RBSN(S) - deprecated, GBON",28.3797,129.4956,https://oscar.wmo.int/surface/#/search/station/stationReportDetails/0-20000-0-47909
2,Asia,Japan,JPN,0-20001-0-47909,47909,1,NAZE/FUNCHATOGE,28 23 39N,129 33 10E,,,293.70,,,,,,,,,,,,,,,,"Precipitation station, Upper-air / Radiosonde station, Weather radar, RBSN(T) - deprecated, RBON, GBON, WRO",28.3942,129.5528,https://oscar.wmo.int/surface/#/search/station/stationReportDetails/0-20001-0-47909
2,Asia,Japan,JPN,0-20000-0-47420,47420,0,NEMURO,43 19 50N,145 35 08E,27.10,,25.20,,mean sea level,,,,,,,,,,,,,,"Automatic weather station (AWS), Climatological station, Surface land meteorological station (SYNOP), RBCN - deprecated, GBON, RBSN(S) - deprecated, GSN, CLIMAT(C) - to be deprecated, RBON, GOS General",43.3306,145.5856,https://oscar.wmo.int/surface/#/search/station/stationReportDetails/0-20000-0-47420
2,Asia,Japan,JPN,0-20000-0-47487,47487,0,NEW CHITOSE AIRPORT,42 46 31N,141 41 33E,24.28,,21.28,,mean sea level,,,,,,,,,,,,,,"Precipitation station, Surface land meteorological station (SYNOP), Weather radar, GOS General, WRO",42.7753,141.6925,https://oscar.wmo.int/surface/#/search/station/stationReportDetails/0-20000-0-47487
2,Asia,Japan,JPN,0-20000-0-47919,47919,0,NEW ISHIGAKI AIRPORT,24 23 47N,124 14 42E,34.09,,31.09,,mean sea level,,,,,,,,,,,,,,"Surface land meteorological station (SYNOP), GOS General",24.3964,124.245,https://oscar.wmo.int/surface/#/search/station/stationReportDetails/0-20000-0-47919
2,Asia,Japan,JPN,0-20000-0-47604,47604,0,NIIGATA,37 53 37N,139 01 08E,5.70,,4.10,,mean sea level,,,,,,,,,,,,,,"Automatic weather station (AWS), Climatological station, Surface land meteorological station (SYNOP), RBON, RBSN(S) - deprecated, RBCN - deprecated, CLIMAT(C) - to be deprecated, GBON",37.8936,139.0189,https://oscar.wmo.int/surface/#/search/station/stationReportDetails/0-20000-0-47604
2,Asia,Japan,JPN,0-20000-0-47573,47573,0,NIIGATA AIRPORT,37 57 21N,139 06 42E,4.41,,1.41,,,,,,,,,,,,,,,,"Surface land meteorological station (SYNOP), GOS General",37.9558,139.1117,https://oscar.wmo.int/surface/#/search/station/stationReportDetails/0-20000-0-47573
2,Asia,Japan,JPN,0-20000-0-47572,47572,0,NIIGATA/YAHIKOYAMA,37 43 07N,138 48 58E,,,632.80,,,,,,,,,,,,,,,,"Precipitation station, Surface land meteorological station (SYNOP), Weather radar, WRO, GOS General",37.7186,138.8161,https://oscar.wmo.int/surface/#/search/station/stationReportDetails/0-20000-0-47572
2,Asia,Japan,JPN,0-20000-0-47690,47690,0,NIKKO,36 44 23N,139 30 01E,1294.00,,1291.90,,850 HPA,,,,,,,,,,,,,,"Automatic weather station (AWS), Surface land meteorological station (SYNOP), GOS General",36.7397,139.5003,https://oscar.wmo.int/surface/#/search/station/stationReportDetails/0-20000-0-47690
2,Asia,Japan,JPN,0-20000-0-47822,47822,0,NOBEOKA,32 34 55N,131 39 29E,21.00,,19.20,,mean sea level,,,,,,,,,,,,,,"Automatic weather station (AWS), Surface land meteorological station (SYNOP), GOS General",32.5819,131.6581,https://oscar.wmo.int/surface/#/search/station/stationReportDetails/0-20000-0-47822
2,Asia,Japan,JPN,0-20000-0-47702,47702,0,NOTO AIRPORT,37 17 36N,136 57 44E,221.85,,218.85,,mean sea level,,,,,,,,,,,,,,"Surface land meteorological station (SYNOP), GOS General",37.2933,136.9622,https://oscar.wmo.int/surface/#/search/station/stationReportDetails/0-20000-0-47702
2,Asia,Japan,JPN,0-20000-0-47854,47854,0,NYUTABARU AB,32 05 01N,131 27 05E,81.94,,78.94,,mean sea level,,,,,,,,,,,,,,"Surface land meteorological station (SYNOP), GOS General",32.0836,131.4514,https://oscar.wmo.int/surface/#/search/station/stationReportDetails/0-20000-0-47854
2,Asia,Japan,JPN,0-20000-0-47417,47417,0,OBIHIRO,42 55 20N,143 12 43E,43.80,,38.40,,mean sea level,,,,,,,,,,,,,,"Automatic weather station (AWS), Surface land meteorological station (SYNOP), GOS General",42.9222,143.2119,https://oscar.wmo.int/surface/#/search/station/stationReportDetails/0-20000-0-47417
2,Asia,Japan,JPN,0-20000-0-47490,47490,0,OBIHIRO AIRPORT,42 44 00N,143 13 02E,152.36,,149.36,,mean sea level,,,,,,,,,,,,,,"Surface land meteorological station (SYNOP), GOS General",42.7333,143.2172,https://oscar.wmo.int/surface/#/search/station/stationReportDetails/0-20000-0-47490
2,Asia,Japan,JPN,0-20000-0-47583,47583,0,ODATE-NOSHIRO AIRPORT,40 11 31N,140 22 18E,87.12,,84.12,,mean sea level,,,,,,,,,,,,,,"Surface land meteorological station (SYNOP), GOS General",40.1919,140.3717,https://oscar.wmo.int/surface/#/search/station/stationReportDetails/0-20000-0-47583
2,Asia,Japan,JPN,0-20000-0-47512,47512,0,OFUNATO,39 03 53N,141 42 53E,38.40,,36.90,,mean sea level,,,,,,,,,,,,,,"Automatic weather station (AWS), Surface land meteorological station (SYNOP), GOS General",39.0647,141.7147,https://oscar.wmo.int/surface/#/search/station/stationReportDetails/0-20000-0-47512
2,Asia,Japan,JPN,0-20000-0-47815,47815,0,OITA,33 14 10N,131 37 09E,13.47,,4.60,,mean sea level,,,,,,,,,,,,,,"Automatic weather station (AWS), Climatological station, Surface land meteorological station (SYNOP), CLIMAT(C) - to be deprecated, RBON, GBON, GSN, GOS General, RBSN(S) - deprecated, RBCN - deprecated",33.2361,131.6192,https://oscar.wmo.int/surface/#/search/station/stationReportDetails/0-20000-0-47815
2,Asia,Japan,JPN,0-20000-0-47852,47852,0,OITA AIRPORT,33 28 46N,131 44 14E,8.19,,5.19,,mean sea level,,,,,,,,,,,,,,"Surface land meteorological station (SYNOP), GOS General",33.4794,131.7372,https://oscar.wmo.int/surface/#/search/station/stationReportDetails/0-20000-0-47852
2,Asia,Japan,JPN,0-20000-0-47768,47768,0,OKAYAMA,34 41 09N,133 55 31E,6.95,,5.32,,mean sea level,,,,,,,,,,,,,,"Automatic weather station (AWS), Surface land meteorological station (SYNOP), GOS General",34.6858,133.9253,https://oscar.wmo.int/surface/#/search/station/stationReportDetails/0-20000-0-47768
2,Asia,Japan,JPN,0-20000-0-47793,47793,0,OKAYAMA AIRPORT,34 45 25N,133 51 19E,242.27,,239.27,,mean sea level,,,,,,,,,,,,,,"Surface land meteorological station (SYNOP), GOS General",34.7569,133.8553,https://oscar.wmo.int/surface/#/search/station/stationReportDetails/0-20000-0-47793
2,Asia,Japan,JPN,0-20000-0-47946,47946,0,OKINAWA,26 30 00N,127 54 00E,90.70,,84.00,,,,,,,,,,,,,,,,"Automatic weather station (AWS), Precipitation station, Surface land meteorological station (SYNOP), CTBTO",26.5,127.9,https://oscar.wmo.int/surface/#/search/station/stationReportDetails/0-20000-0-47946
2,Asia,Japan,JPN,0-20000-0-47942,47942,0,OKINOERABU,27 25 54N,128 42 20E,29.60,,26.80,,mean sea level,,,,,,,,,,,,,,"Automatic weather station (AWS), Surface land meteorological station (SYNOP), GOS General",27.4317,128.7056,https://oscar.wmo.int/surface/#/search/station/stationReportDetails/0-20000-0-47942
2,Asia,Japan,JPN,0-20000-0-47655,47655,0,OMAEZAKI,34 36 17N,138 12 48E,50.40,,45.12,,mean sea level,,,,,,,,,,,,,,"Automatic weather station (AWS), Climatological station, Surface land meteorological station (SYNOP), CLIMAT(C) - to be deprecated, GBON, GOS General, RBCN - deprecated, RBSN(S) - deprecated, RBON",34.6047,138.2133,https://oscar.wmo.int/surface/#/search/station/stationReportDetails/0-20000-0-47655
2,Asia,Japan,JPN,0-20000-0-47516,47516,0,OMINATO AB,41 13 58N,141 07 56E,10.32,,7.32,,mean sea level,,,,,,,,,,,,,,"Surface land meteorological station (SYNOP), GOS General",41.2328,141.1322,https://oscar.wmo.int/surface/#/search/station/stationReportDetails/0-20000-0-47516
2,Asia,Japan,JPN,0-20000-0-47405,47405,0,OMU,44 34 50N,142 57 49E,15.94,,14.14,,mean sea level,,,,,,,,,,,,,,"Automatic weather station (AWS), Surface land meteorological station (SYNOP), GOS General",44.5806,142.9636,https://oscar.wmo.int/surface/#/search/station/stationReportDetails/0-20000-0-47405
2,Asia,Japan,JPN,0-20000-0-47859,47859,0,OMURA AB,32 55 41N,129 56 03E,8.79,,5.79,,mean sea level,,,,,,,,,,,,,,"Surface land meteorological station (SYNOP), GOS General",32.9281,129.9342,https://oscar.wmo.int/surface/#/search/station/stationReportDetails/0-20000-0-47859
2,Asia,Japan,JPN,0-20000-0-47598,47598,0,ONAHAMA,36 56 51N,140 54 12E,5.07,,3.30,,mean sea level,,,,,,,,,,,,,,"Automatic weather station (AWS), Surface land meteorological station (SYNOP), GOS General",36.9475,140.9033,https://oscar.wmo.int/surface/#/search/station/stationReportDetails/0-20000-0-47598
2,Asia,Japan,JPN,0-20000-0-47772,47772,0,OSAKA,34 40 56N,135 31 09E,83.00,,23.00,,mean sea level,,,,,,,,,,,,,,"Automatic weather station (AWS), Climatological station, Surface land meteorological station (SYNOP), RBCN - deprecated, CLIMAT(C) - to be deprecated, RBON, GOS General, GBON, RBSN(S) - deprecated",34.6822,135.5192,https://oscar.wmo.int/surface/#/search/station/stationReportDetails/0-20000-0-47772
2,Asia,Japan,JPN,0-20000-0-47771,47771,0,OSAKA INTERNATIONAL AIRPORT,34 47 04N,135 26 21E,14.89,,11.89,,mean sea level,,,,,,,,,,,,,,"Precipitation station, Surface land meteorological station (SYNOP), Weather radar, WRO, GOS General",34.7844,135.4392,https://oscar.wmo.int/surface/#/search/station/stationReportDetails/0-20000-0-47771
2,Asia,Japan,JPN,0-20000-0-47773,47773,0,OSAKA/TAKAYASUYAMA,34 36 59N,135 39 23E,,,473.65,,,,,,,,,,,,,,,,"Precipitation station, Surface land meteorological station (SYNOP), Weather radar, GOS General, WRO",34.6164,135.6564,https://oscar.wmo.int/surface/#/search/station/stationReportDetails/0-20000-0-47773
2,Asia,Japan,JPN,0-20000-0-47675,47675,0,OSHIMA,34 44 58N,139 21 47E,75.50,,74.00,,mean sea level,,,,,,,,,,,,,,"Automatic weather station (AWS), Climatological station, Surface land meteorological station (SYNOP), GBON, GOS General, RBCN - deprecated, CLIMAT(C) - to be deprecated, RBSN(S) - deprecated, RBON",34.7494,139.3631,https://oscar.wmo.int/surface/#/search/station/stationReportDetails/0-20000-0-47675
2,Asia,Japan,JPN,0-20000-0-47735,47735,0,OSHIMA AIRPORT,34 46 55N,139 21 37E,40.80,,37.80,,mean sea level,,,,,,,,,,,,,,"Surface land meteorological station (SYNOP), GOS General",34.7819,139.3603,https://oscar.wmo.int/surface/#/search/station/stationReportDetails/0-20000-0-47735
2,Asia,Japan,JPN,0-20000-0-47411,47411,0,OTARU,43 10 57N,141 00 59E,26.33,,24.90,,mean sea level,,,,,,,,,,,,,,"Automatic weather station (AWS), Surface land meteorological station (SYNOP), GOS General",43.1825,141.0164,https://oscar.wmo.int/surface/#/search/station/stationReportDetails/0-20000-0-47411
2,Asia,Japan,JPN,0-20000-0-47663,47663,0,OWASE,34 04 11N,136 11 36E,17.10,,15.30,,mean sea level,,,,,,,,,,,,,,"Automatic weather station (AWS), Surface land meteorological station (SYNOP), GOS General",34.0697,136.1933,https://oscar.wmo.int/surface/#/search/station/stationReportDetails/0-20000-0-47663
2,Asia,Japan,JPN,0-20000-0-47787,47787,0,OZUKI AB,34 02 49N,131 03 08E,6.96,,3.96,,mean sea level,,,,,,,,,,,,,,"Surface land meteorological station (SYNOP), GOS General",34.0469,131.0522,https://oscar.wmo.int/surface/#/search/station/stationReportDetails/0-20000-0-47787
2,Asia,Japan,JPN,0-20000-0-47406,47406,0,RUMOI,43 56 46N,141 37 55E,25.30,,23.60,,mean sea level,,,,,,,,,,,,,,"Automatic weather station (AWS), Surface land meteorological station (SYNOP), GOS General",43.9461,141.6319,https://oscar.wmo.int/surface/#/search/station/stationReportDetails/0-20000-0-47406
2,Asia,Japan,JPN,0-20000-0-47513,47513,0,RYORI,39 01 55N,141 49 20E,,,260.00,,,,,,,,,,,,,,,,"Surface land meteorological station (SYNOP), GOS General",39.0319,141.8222,https://oscar.wmo.int/surface/#/search/station/stationReportDetails/0-20000-0-47513
2,Asia,Japan,JPN,0-20000-0-47813,47813,0,SAGA,33 15 59N,130 18 19E,33.00,,5.47,,mean sea level,,,,,,,,,,,,,,"Automatic weather station (AWS), Surface land meteorological station (SYNOP), GOS General",33.2664,130.3053,https://oscar.wmo.int/surface/#/search/station/stationReportDetails/0-20000-0-47813
2,Asia,Japan,JPN,0-20000-0-47810,47810,0,SAGA AIRPORT,33 08 59N,130 18 08E,4.83,,1.83,,mean sea level,,,,,,,,,,,,,,"Surface land meteorological station (SYNOP), GOS General",33.1497,130.3022,https://oscar.wmo.int/surface/#/search/station/stationReportDetails/0-20000-0-47810
2,Asia,Japan,JPN,0-20000-0-47740,47740,0,SAIGO,36 12 16N,133 20 02E,28.13,,26.50,,mean sea level,,,,,,,,,,,,,,"Automatic weather station (AWS), Climatological station, Surface land meteorological station (SYNOP), RBSN(S) - deprecated, CLIMAT(C) - to be deprecated, GBON, RBON, RBCN - deprecated, GOS General",36.2044,133.3339,https://oscar.wmo.int/surface/#/search/station/stationReportDetails/0-20000-0-47740
2,Asia,Japan,JPN,0-20000-0-47742,47742,0,SAKAI,35 32 41N,133 14 06E,3.80,,2.04,,mean sea level,,,,,,,,,,,,,,"Automatic weather station (AWS), Surface land meteorological station (SYNOP), GOS General",35.5447,133.235,https://oscar.wmo.int/surface/#/search/station/stationReportDetails/0-20000-0-47742
2,Asia,Japan,JPN,0-20000-0-47587,47587,0,SAKATA,38 54 31N,139 50 36E,4.84,,3.14,,mean sea level,,,,,,,,,,,,,,"Automatic weather station (AWS), Surface land meteorological station (SYNOP), GOS General",38.9086,139.8433,https://oscar.wmo.int/surface/#/search/station/stationReportDetails/0-20000-0-47587
2,Asia,Japan,JPN,0-20000-0-47412,47412,0,SAPPORO,43 03 36N,141 19 43E,26.20,,17.45,,mean sea level,,,,,,,,,,,,,,"Automatic weather station (AWS), Climatological station, Upper-air / Radiosonde station, Surface land meteorological station (SYNOP), RBON, GUAN, RBSN(ST) - deprecated, GBON, CLIMAT(C) - to be deprecated, RBCN - deprecated",43.06,141.3286,https://oscar.wmo.int/surface/#/search/station/stationReportDetails/0-20000-0-47412
2,Asia,Japan,JPN,0-20000-0-47479,47479,0,SAPPORO AB,43 07 03N,141 22 53E,10.92,,7.92,,mean sea level,,,,,,,,,,,,,,"Surface land meteorological station (SYNOP), GOS General",43.1175,141.3814,https://oscar.wmo.int/surface/#/search/station/stationReportDetails/0-20000-0-47479
2,Asia,Japan,JPN,0-20000-0-47415,47415,0,SAPPORO/KENASHIYAMA,43 08 20N,141 00 35E,,,700.00,,,,,,,,,,,,,,,,"Precipitation station, Surface land meteorological station (SYNOP), Weather radar, GOS General, WRO",43.1389,141.0097,https://oscar.wmo.int/surface/#/search/station/stationReportDetails/0-20000-0-47415
2,Asia,Japan,JPN,0-20000-0-47811,47811,0,SASEBO (47811-0),33 09 00N,129 44 00E,,,19.00,,,,,,,,,,,,,,,,"Surface land meteorological station (SYNOP), GOS General",33.15,129.7333,https://oscar.wmo.int/surface/#/search/station/stationReportDetails/0-20000-0-47811
2,Asia,Japan,JPN,0-20000-0-47812,47812,0,SASEBO (47812-0),33 09 35N,129 43 39E,5.50,,3.90,,mean sea level,,,,,,,,,,,,,,"Automatic weather station (AWS), Surface land meteorological station (SYNOP), GOS General",33.1597,129.7275,https://oscar.wmo.int/surface/#/search/station/stationReportDetails/0-20000-0-47812
2,Asia,Japan,JPN,0-20000-0-47590,47590,0,SENDAI (47590-0),38 15 43N,140 53 48E,43.79,,38.85,,mean sea level,,,,,,,,,,,,,,"Automatic weather station (AWS), Climatological station, Precipitation station, Surface land meteorological station (SYNOP), Weather radar, RBSN(S) - deprecated, RBCN - deprecated, RBON, GBON, GOS General, WRO, CLIMAT(C) - to be deprecated",38.2619,140.8967,https://oscar.wmo.int/surface/#/search/station/stationReportDetails/0-20000-0-47590
2,Asia,Japan,JPN,0-20000-0-47569,47569,0,SENDAI AIRPORT,38 08 23N,140 55 01E,4.71,,1.71,,mean sea level,,,,,,,,,,,,,,"Surface land meteorological station (SYNOP), GOS General",38.1397,140.9169,https://oscar.wmo.int/surface/#/search/station/stationReportDetails/0-20000-0-47569
2,Asia,Japan,JPN,0-20000-0-47898,47898,0,SHIMIZU,32 43 23N,133 00 37E,33.83,,31.00,,mean sea level,,,,,,,,,,,,,,"Automatic weather station (AWS), Surface land meteorological station (SYNOP), GOS General",32.7231,133.0103,https://oscar.wmo.int/surface/#/search/station/stationReportDetails/0-20000-0-47898
2,Asia,Japan,JPN,0-20000-0-47727,47727,0,SHIMOFUSA AB,35 47 56N,140 00 44E,32.87,,29.87,,mean sea level,,,,,,,,,,,,,,"Surface land meteorological station (SYNOP), GOS General",35.7989,140.0122,https://oscar.wmo.int/surface/#/search/station/stationReportDetails/0-20000-0-47727
2,Asia,Japan,JPN,0-20000-0-47925,47925,0,SHIMOJISHIMA AIRPORT,24 49 36N,125 08 41E,10.62,,7.62,,mean sea level,,,,,,,,,,,,,,"Surface land meteorological station (SYNOP), GOS General",24.8267,125.1447,https://oscar.wmo.int/surface/#/search/station/stationReportDetails/0-20000-0-47925
2,Asia,Japan,JPN,0-20000-0-47762,47762,0,SHIMONOSEKI,33 56 55N,130 55 35E,19.50,,3.30,,mean sea level,,,,,,,,,,,,,,"Automatic weather station (AWS), Surface land meteorological station (SYNOP), GOS General",33.9486,130.9264,https://oscar.wmo.int/surface/#/search/station/stationReportDetails/0-20000-0-47762
2,Asia,Japan,JPN,0-20000-0-47520,47520,0,SHINJO,38 45 25N,140 18 44E,102.04,,105.10,,mean sea level,,,,,,,,,,,,,,"Automatic weather station (AWS), Surface land meteorological station (SYNOP), GOS General",38.7569,140.3122,https://oscar.wmo.int/surface/#/search/station/stationReportDetails/0-20000-0-47520
2,Asia,Japan,JPN,0-20000-0-47778,47778,0,SHIONOMISAKI (47778-0),33 27 01N,135 45 26E,69.18,,67.53,,mean sea level,,,,,,,,,,,,,,"Automatic weather station (AWS), Climatological station, Surface land meteorological station (SYNOP), GSN, GBON, RBSN(S) - deprecated, RBON, GOS General, CLIMAT(C) - to be deprecated, RBCN - deprecated",33.4503,135.7572,https://oscar.wmo.int/surface/#/search/station/stationReportDetails/0-20000-0-47778
2,Asia,Japan,JPN,0-20001-0-47778,47778,1,SHIONOMISAKI (47778-1),33 27 01N,135 45 26E,,,67.53,,,,,,,,,,,,,,,,"Upper-air / Radiosonde station, RBSN(T) - deprecated, RBON, GBON",33.4503,135.7572,https://oscar.wmo.int/surface/#/search/station/stationReportDetails/0-20001-0-47778
2,Asia,Japan,JPN,0-20000-0-47597,47597,0,SHIRAKAWA,37 07 54N,140 12 54E,356.68,,354.95,,mean sea level,,,,,,,,,,,,,,"Automatic weather station (AWS), Surface land meteorological station (SYNOP), GOS General",37.1317,140.215,https://oscar.wmo.int/surface/#/search/station/stationReportDetails/0-20000-0-47597
2,Asia,Japan,JPN,0-20000-0-47658,47658,0,SHIZUHAMA AB,34 48 46N,138 17 53E,10.01,,7.01,,mean sea level,,,,,,,,,,,,,,"Surface land meteorological station (SYNOP), GOS General",34.8128,138.2981,https://oscar.wmo.int/surface/#/search/station/stationReportDetails/0-20000-0-47658
2,Asia,Japan,JPN,0-20000-0-47656,47656,0,SHIZUOKA,34 58 34N,138 24 14E,15.90,,14.10,,mean sea level,,,,,,,,,,,,,,"Automatic weather station (AWS), Surface land meteorological station (SYNOP), GOS General",34.9761,138.4039,https://oscar.wmo.int/surface/#/search/station/stationReportDetails/0-20000-0-47656
2,Asia,Japan,JPN,0-20000-0-47739,47739,0,SHIZUOKA AIRPORT,34 47 46N,138 11 22E,134.98,,131.98,,mean sea level,,,,,,,,,,,,,,"Surface land meteorological station (SYNOP), GOS General",34.7961,138.1894,https://oscar.wmo.int/surface/#/search/station/stationReportDetails/0-20000-0-47739
2,Asia,Japan,JPN,0-20000-0-47659,47659,0,SHIZUOKA/MAKINOHARA,34 44 34N,138 08 01E,,,156.23,,,,,,,,,,,,,,,,"Precipitation station, Surface land meteorological station (SYNOP), Weather radar, WRO, GOS General",34.7428,138.1336,https://oscar.wmo.int/surface/#/search/station/stationReportDetails/0-20000-0-47659
2,Asia,Japan,JPN,0-20000-0-47551,47551,0,SHONAI AIRPORT,38 48 44N,139 47 14E,24.95,,21.95,,mean sea level,,,,,,,,,,,,,,"Surface land meteorological station (SYNOP), GOS General",38.8122,139.7872,https://oscar.wmo.int/surface/#/search/station/stationReportDetails/0-20000-0-47551
2,Asia,Japan,JPN,0-20000-0-47897,47897,0,SUKUMO,32 55 14N,132 41 42E,10.91,,2.20,,mean sea level,,,,,,,,,,,,,,"Automatic weather station (AWS), Surface land meteorological station (SYNOP), GOS General",32.9206,132.695,https://oscar.wmo.int/surface/#/search/station/stationReportDetails/0-20000-0-47897
2,Asia,Japan,JPN,0-20000-0-47776,47776,0,SUMOTO,34 18 38N,134 50 57E,70.55,,68.85,,,,,,,,,,,,,,,,"Automatic weather station (AWS), Surface land meteorological station (SYNOP), GOS General",34.3106,134.8492,https://oscar.wmo.int/surface/#/search/station/stationReportDetails/0-20000-0-47776
2,Asia,Japan,JPN,0-20000-0-47421,47421,0,SUTTSU,42 47 44N,140 13 28E,35.10,,33.40,,mean sea level,,,,,,,,,,,,,,"Automatic weather station (AWS), Climatological station, Surface land meteorological station (SYNOP), RBCN - deprecated, RBSN(S) - deprecated, CLIMAT(C) - to be deprecated, RBON, GBON",42.7956,140.2244,https://oscar.wmo.int/surface/#/search/station/stationReportDetails/0-20000-0-47421
2,Asia,Japan,JPN,0-20000-0-47620,47620,0,SUWA,36 02 46N,138 06 35E,762.60,,760.10,,mean sea level,,,,,,,,,,,,,,"Automatic weather station (AWS), Surface land meteorological station (SYNOP), GOS General",36.0461,138.1097,https://oscar.wmo.int/surface/#/search/station/stationReportDetails/0-20000-0-47620
2,Asia,Japan,JPN,0-20000-0-47660,47660,0,TACHIKAWA AB,35 42 39N,139 24 11E,98.40,,95.40,,mean sea level,,,,,,,,,,,,,,"Surface land meteorological station (SYNOP), GOS General",35.7108,139.4031,https://oscar.wmo.int/surface/#/search/station/stationReportDetails/0-20000-0-47660
2,Asia,Japan,JPN,0-20000-0-47890,47890,0,TADOTSU,34 16 34N,133 45 09E,5.34,,3.68,,mean sea level,,,,,,,,,,,,,,"Automatic weather station (AWS), Surface land meteorological station (SYNOP), GOS General",34.2761,133.7525,https://oscar.wmo.int/surface/#/search/station/stationReportDetails/0-20000-0-47890
2,Asia,Japan,JPN,0-20000-0-47612,47612,0,TAKADA,37 06 24N,138 14 48E,14.60,,12.90,,mean sea level,,,,,,,,,,,,,,"Automatic weather station (AWS), Surface land meteorological station (SYNOP), GOS General",37.1067,138.2467,https://oscar.wmo.int/surface/#/search/station/stationReportDetails/0-20000-0-47612
2,Asia,Japan,JPN,0-20000-0-47891,47891,0,TAKAMATSU,34 19 06N,134 03 15E,10.69,,9.36,,,,,,,,,,,,,,,,"Automatic weather station (AWS), Climatological station, Surface land meteorological station (SYNOP), RBON, RBCN - deprecated, GBON, GOS General, CLIMAT(C) - to be deprecated, RBSN(S) - deprecated",34.3183,134.0542,https://oscar.wmo.int/surface/#/search/station/stationReportDetails/0-20000-0-47891
2,Asia,Japan,JPN,0-20000-0-47880,47880,0,TAKAMATSU AIRPORT,34 12 51N,134 00 56E,188.02,,185.02,,mean sea level,,,,,,,,,,,,,,"Surface land meteorological station (SYNOP), GOS General",34.2142,134.0156,https://oscar.wmo.int/surface/#/search/station/stationReportDetails/0-20000-0-47880
2,Asia,Japan,JPN,0-20000-0-47625,47625,0,TAKASAKI,36 18 00N,139 04 48E,77.80,,71.40,,,,,,,,,,,,,,,,"Precipitation station, Surface land meteorological station (SYNOP), CTBTO",36.3,139.08,https://oscar.wmo.int/surface/#/search/station/stationReportDetails/0-20000-0-47625
2,Asia,Japan,JPN,0-20000-0-47617,47617,0,TAKAYAMA,36 09 22N,137 15 12E,561.90,,560.00,,mean sea level,,,,,,,,,,,,,,"Automatic weather station (AWS), Surface land meteorological station (SYNOP), GOS General",36.1561,137.2533,https://oscar.wmo.int/surface/#/search/station/stationReportDetails/0-20000-0-47617
2,Asia,Japan,JPN,0-20000-0-47837,47837,0,TANEGASHIMA,30 43 13N,130 58 57E,37.57,,24.90,,mean sea level,,,,,,,,,,,,,,"Automatic weather station (AWS), Surface land meteorological station (SYNOP), GOS General",30.7203,130.9825,https://oscar.wmo.int/surface/#/search/station/stationReportDetails/0-20000-0-47837
2,Asia,Japan,JPN,0-20000-0-47870,47870,0,TANEGASHIMA AIRPORT,30 36 18N,130 59 30E,237.09,,234.09,,mean sea level,,,,,,,,,,,,,,"Surface land meteorological station (SYNOP), GOS General",30.605,130.9917,https://oscar.wmo.int/surface/#/search/station/stationReportDetails/0-20000-0-47870
2,Asia,Japan,JPN,0-20000-0-47869,47869,0,TANEGASHIMA/NAKATANE,30 38 22N,130 58 43E,,,281.00,,,,,,,,,,,,,,,,"Precipitation station, Surface land meteorological station (SYNOP), Weather radar, GOS General, WRO",30.6394,130.9786,https://oscar.wmo.int/surface/#/search/station/stationReportDetails/0-20000-0-47869
2,Asia,Japan,JPN,0-20000-0-47646,47646,0,TATENO,36 03 29N,140 07 33E,27.38,,25.20,,,,,,,,,,,,,,,,"Automatic weather station (AWS), Upper-air / Radiosonde station, Surface land meteorological station (SYNOP), GRUAN, RBON, GUAN, RBSN(T) - deprecated, GBON, GOS General",36.0581,140.1258,https://oscar.wmo.int/surface/#/search/station/stationReportDetails/0-20000-0-47646
2,Asia,Japan,JPN,0-20000-0-47672,47672,0,TATEYAMA,34 59 13N,139 51 55E,7.10,,5.80,,mean sea level,,,,,,,,,,,,,,"Automatic weather station (AWS), Surface land meteorological station (SYNOP), GOS General",34.9869,139.8653,https://oscar.wmo.int/surface/#/search/station/stationReportDetails/0-20000-0-47672
2,Asia,Japan,JPN,0-20000-0-47688,47688,0,TATEYAMA AB,34 59 15N,139 49 55E,6.05,,3.05,,mean sea level,,,,,,,,,,,,,,"Surface land meteorological station (SYNOP), GOS General",34.9875,139.8319,https://oscar.wmo.int/surface/#/search/station/stationReportDetails/0-20000-0-47688
2,Asia,Japan,JPN,0-20000-0-47895,47895,0,TOKUSHIMA,34 04 04N,134 34 24E,6.40,,1.60,,mean sea level,,,,,,,,,,,,,,"Automatic weather station (AWS), Climatological station, Surface land meteorological station (SYNOP), RBON, GBON, RBCN - deprecated, CLIMAT(C) - to be deprecated, GOS General, RBSN(S) - deprecated",34.0678,134.5733,https://oscar.wmo.int/surface/#/search/station/stationReportDetails/0-20000-0-47895
2,Asia,Japan,JPN,0-20000-0-47881,47881,0,TOKUSHIMA AB,34 07 56N,134 36 33E,11.00,,8.00,,,,,,,,,,,,,,,,"Upper-air / Radiosonde station, Surface land meteorological station (SYNOP), GOS General",34.1322,134.6092,https://oscar.wmo.int/surface/#/search/station/stationReportDetails/0-20000-0-47881
2,Asia,Japan,JPN,0-20000-0-47662,47662,0,TOKYO,35 41 30N,139 45 04E,24.20,,25.20,,mean sea level,,,,,,,,,,,,,,"Automatic weather station (AWS), Climatological station, Surface land meteorological station (SYNOP), RBSN(S) - deprecated, RBON, GOS General, CLIMAT(C) - to be deprecated, RBCN - deprecated, GBON",35.6917,139.7511,https://oscar.wmo.int/surface/#/search/station/stationReportDetails/0-20000-0-47662
2,Asia,Japan,JPN,0-20000-0-47671,47671,0,TOKYO INTERNATIONAL AIRPORT,35 33 12N,139 46 52E,9.41,,6.41,,mean sea level,,,,,,,,,,,,,,"Precipitation station, Surface land meteorological station (SYNOP), Weather radar, WRO, GOS General",35.5533,139.7811,https://oscar.wmo.int/surface/#/search/station/stationReportDetails/0-20000-0-47671
2,Asia,Japan,JPN,0-20000-0-47695,47695,0,TOKYO/KASHIWA,35 51 35N,139 57 35E,,,19.00,,,,,,,,,,,,,,,,"Precipitation station, Surface land meteorological station (SYNOP), Weather radar, GOS General, WRO",35.8597,139.9597,https://oscar.wmo.int/surface/#/search/station/stationReportDetails/0-20000-0-47695
2,Asia,Japan,JPN,0-20000-0-47424,47424,0,TOMAKOMAI,42 37 24N,141 32 50E,7.93,,6.25,,mean sea level,,,,,,,,,,,,,,"Automatic weather station (AWS), Surface land meteorological station (SYNOP), GOS General",42.6233,141.5472,https://oscar.wmo.int/surface/#/search/station/stationReportDetails/0-20000-0-47424
2,Asia,Japan,JPN,0-20000-0-47746,47746,0,TOTTORI (47746-0),35 29 16N,134 14 18E,15.92,,7.10,,mean sea level,,,,,,,,,,,,,,"Automatic weather station (AWS), Climatological station, Surface land meteorological station (SYNOP), RBON, GBON, CLIMAT(C) - to be deprecated, RBCN - deprecated, RBSN(S) - deprecated",35.4878,134.2383,https://oscar.wmo.int/surface/#/search/station/stationReportDetails/0-20000-0-47746
2,Asia,Japan,JPN,0-20001-0-47746,47746,1,TOTTORI (47746-1),35 31 51N,134 11 58E,,,6.00,,,,,,,,,,,,,,,,GOS General,35.5308,134.1994,https://oscar.wmo.int/surface/#/search/station/stationReportDetails/0-20001-0-47746
2,Asia,Japan,JPN,0-20000-0-47794,47794,0,TOTTORI AIRPORT,35 31 48N,134 09 54E,17.64,,14.64,,mean sea level,,,,,,,,,,,,,,"Surface land meteorological station (SYNOP), GOS General",35.53,134.165,https://oscar.wmo.int/surface/#/search/station/stationReportDetails/0-20000-0-47794
2,Asia,Japan,JPN,0-20000-0-47607,47607,0,TOYAMA,36 42 34N,137 12 09E,17.33,,8.60,,mean sea level,,,,,,,,,,,,,,"Automatic weather station (AWS), Surface land meteorological station (SYNOP), GOS General",36.7094,137.2025,https://oscar.wmo.int/surface/#/search/station/stationReportDetails/0-20000-0-47607
2,Asia,Japan,JPN,0-20000-0-47707,47707,0,TOYAMA AIRPORT,36 38 54N,137 11 15E,26.47,,23.47,,mean sea level,,,,,,,,,,,,,,"Surface land meteorological station (SYNOP), GOS General",36.6483,137.1875,https://oscar.wmo.int/surface/#/search/station/stationReportDetails/0-20000-0-47707
2,Asia,Japan,JPN,0-20000-0-47747,47747,0,TOYOOKA,35 32 09N,134 49 20E,5.80,,3.40,,,,,,,,,,,,,,,,"Automatic weather station (AWS), Surface land meteorological station (SYNOP), GOS General",35.5358,134.8222,https://oscar.wmo.int/surface/#/search/station/stationReportDetails/0-20000-0-47747
2,Asia,Japan,JPN,0-20000-0-47651,47651,0,TSU,34 44 03N,136 31 11E,18.40,,2.70,,mean sea level,,,,,,,,,,,,,,"Automatic weather station (AWS), Climatological station, Surface land meteorological station (SYNOP), RBSN(S) - deprecated, GBON, RBCN - deprecated, RBON, CLIMAT(C) - to be deprecated, GOS General",34.7342,136.5197,https://oscar.wmo.int/surface/#/search/station/stationReportDetails/0-20000-0-47651
2,Asia,Japan,JPN,0-20000-0-47840,47840,0,TSUIKI AB,33 41 06N,131 02 25E,19.76,,16.76,,mean sea level,,,,,,,,,,,,,,"Surface land meteorological station (SYNOP), GOS General",33.685,131.0403,https://oscar.wmo.int/surface/#/search/station/stationReportDetails/0-20000-0-47840
2,Asia,Japan,JPN,0-20000-0-47631,47631,0,TSURUGA,35 39 12N,136 03 44E,12.40,,1.60,,mean sea level,,,,,,,,,,,,,,"Automatic weather station (AWS), Surface land meteorological station (SYNOP), GOS General",35.6533,136.0622,https://oscar.wmo.int/surface/#/search/station/stationReportDetails/0-20000-0-47631
2,Asia,Japan,JPN,0-20000-0-47799,47799,0,TSUSHIMA AIRPORT,34 17 06N,129 19 50E,66.10,,63.10,,mean sea level,,,,,,,,,,,,,,"Surface land meteorological station (SYNOP), GOS General",34.285,129.3306,https://oscar.wmo.int/surface/#/search/station/stationReportDetails/0-20000-0-47799
2,Asia,Japan,JPN,0-20000-0-47756,47756,0,TSUYAMA,35 03 52N,134 00 35E,147.80,,145.70,,mean sea level,,,,,,,,,,,,,,"Automatic weather station (AWS), Surface land meteorological station (SYNOP), GOS General",35.0644,134.0097,https://oscar.wmo.int/surface/#/search/station/stationReportDetails/0-20000-0-47756
2,Asia,Japan,JPN,0-20000-0-47649,47649,0,UENO,34 45 42N,136 08 31E,160.95,,159.18,,mean sea level,,,,,,,,,,,,,,"Automatic weather station (AWS), Surface land meteorological station (SYNOP), GOS General",34.7617,136.1419,https://oscar.wmo.int/surface/#/search/station/stationReportDetails/0-20000-0-47649
2,Asia,Japan,JPN,0-20000-0-47818,47818,0,UNZENDAKE,32 44 15N,130 15 45E,679.80,,677.50,,mean sea level,,,,,,,,,,,,,,"Automatic weather station (AWS), Surface land meteorological station (SYNOP), GOS General",32.7375,130.2625,https://oscar.wmo.int/surface/#/search/station/stationReportDetails/0-20000-0-47818
2,Asia,Japan,JPN,0-20000-0-47426,47426,0,URAKAWA,42 09 45N,142 46 37E,38.46,,36.74,,mean sea level,,,,,,,,,,,,,,"Automatic weather station (AWS), Climatological station, Surface land meteorological station (SYNOP), RBCN - deprecated, GBON, RBSN(S) - deprecated, CLIMAT(C) - to be deprecated, RBON",42.1625,142.7769,https://oscar.wmo.int/surface/#/search/station/stationReportDetails/0-20000-0-47426
2,Asia,Japan,JPN,0-20000-0-47838,47838,0,USHIBUKA,32 11 52N,130 01 36E,14.90,,3.00,,mean sea level,,,,,,,,,,,,,,"Automatic weather station (AWS), Surface land meteorological station (SYNOP), GOS General",32.1978,130.0267,https://oscar.wmo.int/surface/#/search/station/stationReportDetails/0-20000-0-47838
2,Asia,Japan,JPN,0-20000-0-47615,47615,0,UTSUNOMIYA,36 32 58N,139 52 06E,140.30,,119.40,,mean sea level,,,,,,,,,,,,,,"Automatic weather station (AWS), Surface land meteorological station (SYNOP), GOS General",36.5494,139.8683,https://oscar.wmo.int/surface/#/search/station/stationReportDetails/0-20000-0-47615
2,Asia,Japan,JPN,0-20000-0-47692,47692,0,UTSUNOMIYA AB,36 30 52N,139 52 15E,104.80,,101.80,,mean sea level,,,,,,,,,,,,,,"Surface land meteorological station (SYNOP), GOS General",36.5144,139.8708,https://oscar.wmo.int/surface/#/search/station/stationReportDetails/0-20000-0-47692
2,Asia,Japan,JPN,0-20000-0-47892,47892,0,UWAJIMA,33 13 40N,132 33 11E,14.77,,2.40,,mean sea level,,,,,,,,,,,,,,"Automatic weather station (AWS), Surface land meteorological station (SYNOP), GOS General",33.2278,132.5531,https://oscar.wmo.int/surface/#/search/station/stationReportDetails/0-20000-0-47892
2,Asia,Japan,JPN,0-20000-0-47600,47600,0,WAJIMA,37 23 29N,136 53 43E,6.70,,5.16,,mean sea level,,,,,,,,,,,,,,"Automatic weather station (AWS), Climatological station, Upper-air / Radiosonde station, Surface land meteorological station (SYNOP), GSN, RBCN - deprecated, RBON, GBON, CLIMAT(C) - to be deprecated, RBSN(ST) - deprecated",37.3914,136.8953,https://oscar.wmo.int/surface/#/search/station/stationReportDetails/0-20000-0-47600
2,Asia,Japan,JPN,0-20000-0-47570,47570,0,WAKAMATSU,37 29 18N,139 54 38E,213.62,,211.65,,mean sea level,,,,,,,,,,,,,,"Automatic weather station (AWS), Climatological station, Surface land meteorological station (SYNOP), RBCN - deprecated, GBON, RBSN(S) - deprecated, GOS General, CLIMAT(C) - to be deprecated, RBON",37.4883,139.9106,https://oscar.wmo.int/surface/#/search/station/stationReportDetails/0-20000-0-47570
2,Asia,Japan,JPN,0-20000-0-47777,47777,0,WAKAYAMA,34 13 44N,135 09 51E,18.37,,13.90,,mean sea level,,,,,,,,,,,,,,"Automatic weather station (AWS), Surface land meteorological station (SYNOP), GOS General",34.2289,135.1642,https://oscar.wmo.int/surface/#/search/station/stationReportDetails/0-20000-0-47777
2,Asia,Japan,JPN,0-20000-0-47795,47795,0,WAKAYAMA/MIHAMA,33 53 32N,135 07 30E,,,9.00,,,,,,,,,,,,,,,,"Surface land meteorological station (SYNOP), GOS General",33.8922,135.125,https://oscar.wmo.int/surface/#/search/station/stationReportDetails/0-20000-0-47795
2,Asia,Japan,JPN,0-20000-0-47401,47401,0,WAKKANAI,45 24 55N,141 40 43E,11.70,,2.85,,mean sea level,,,,,,,,,,,,,,"Automatic weather station (AWS), Climatological station, Upper-air / Radiosonde station, Surface land meteorological station (SYNOP), RBCN - deprecated, CLIMAT(C) - to be deprecated, RBSN(ST) - deprecated, GSN, RBON, GOS General, GBON",45.4153,141.6786,https://oscar.wmo.int/surface/#/search/station/stationReportDetails/0-20000-0-47401
2,Asia,Japan,JPN,0-20000-0-47441,47441,0,WAKKANAI AIRPORT,45 24 16N,141 48 08E,11.23,,8.23,,mean sea level,,,,,,,,,,,,,,"Surface land meteorological station (SYNOP), GOS General",45.4044,141.8022,https://oscar.wmo.int/surface/#/search/station/stationReportDetails/0-20000-0-47441
2,Asia,Japan,JPN,0-20000-0-47836,47836,0,YAKUSHIMA (47836-0),30 23 08N,130 39 33E,38.00,,37.30,,mean sea level,,,,,,,,,,,,,,"Automatic weather station (AWS), Surface land meteorological station (SYNOP), GOS General",30.3856,130.6592,https://oscar.wmo.int/surface/#/search/station/stationReportDetails/0-20000-0-47836
2,Asia,Japan,JPN,0-20001-0-47836,47836,1,YAKUSHIMA (47836-1),30 22 59N,130 39 33E,,,36.00,,,,,,,,,,,,,,,,GOS General,30.3831,130.6592,https://oscar.wmo.int/surface/#/search/station/stationReportDetails/0-20001-0-47836
2,Asia,Japan,JPN,0-20000-0-47588,47588,0,YAMAGATA,38 15 20N,140 20 46E,153.74,,152.50,,mean sea level,,,,,,,,,,,,,,"Automatic weather station (AWS), Surface land meteorological station (SYNOP), GOS General",38.2556,140.3461,https://oscar.wmo.int/surface/#/search/station/stationReportDetails/0-20000-0-47588
2,Asia,Japan,JPN,0-20000-0-47553,47553,0,YAMAGATA AIRPORT,38 24 43N,140 22 16E,108.16,,105.16,,mean sea level,,,,,,,,,,,,,,"Surface land meteorological station (SYNOP), GOS General",38.4119,140.3711,https://oscar.wmo.int/surface/#/search/station/stationReportDetails/0-20000-0-47553
2,Asia,Japan,JPN,0-20000-0-47784,47784,0,YAMAGUCHI,34 09 45N,131 27 44E,19.74,,18.14,,mean sea level,,,,,,,,,,,,,,"Automatic weather station (AWS), Surface land meteorological station (SYNOP), GOS General",34.1625,131.4622,https://oscar.wmo.int/surface/#/search/station/stationReportDetails/0-20000-0-47784
2,Asia,Japan,JPN,0-20000-0-47786,47786,0,YAMAGUCHI-UBE AIRPORT,33 55 48N,131 16 43E,7.58,,4.58,,mean sea level,,,,,,,,,,,,,,"Surface land meteorological station (SYNOP), GOS General",33.93,131.2786,https://oscar.wmo.int/surface/#/search/station/stationReportDetails/0-20000-0-47786
2,Asia,Japan,JPN,0-20000-0-47779,47779,0,YAO AIRPORT,34 35 48N,135 36 02E,13.06,,10.06,,mean sea level,,,,,,,,,,,,,,"Surface land meteorological station (SYNOP), GOS General",34.5967,135.6006,https://oscar.wmo.int/surface/#/search/station/stationReportDetails/0-20000-0-47779
2,Asia,Japan,JPN,0-20000-0-47684,47684,0,YOKKAICHI,34 56 24N,136 34 48E,57.10,,55.08,,mean sea level,,,,,,,,,,,,,,"Automatic weather station (AWS), Surface land meteorological station (SYNOP), GOS General",34.94,136.58,https://oscar.wmo.int/surface/#/search/station/stationReportDetails/0-20000-0-47684
2,Asia,Japan,JPN,0-20000-0-47670,47670,0,YOKOHAMA,35 26 23N,139 39 09E,42.74,,39.10,,mean sea level,,,,,,,,,,,,,,"Automatic weather station (AWS), Surface land meteorological station (SYNOP), GOS General",35.4397,139.6525,https://oscar.wmo.int/surface/#/search/station/stationReportDetails/0-20000-0-47670
2,Asia,Japan,JPN,0-20000-0-47696,47696,0,YOKOSUKA,35 17 00N,139 40 00E,53.00,,49.00,,mean sea level,,,,,,,,,,,,,,"Surface land meteorological station (SYNOP), GOS General",35.2833,139.6667,https://oscar.wmo.int/surface/#/search/station/stationReportDetails/0-20000-0-47696
2,Asia,Japan,JPN,0-20000-0-47642,47642,0,YOKOTA,35 44 55N,139 20 55E,143.82,,140.82,,mean sea level,,,,,,,,,,,,,,"Surface land meteorological station (SYNOP), GOS General",35.7486,139.3486,https://oscar.wmo.int/surface/#/search/station/stationReportDetails/0-20000-0-47642
2,Asia,Japan,JPN,0-20000-0-47744,47744,0,YONAGO,35 26 05N,133 20 19E,8.12,,6.50,,mean sea level,,,,,,,,,,,,,,"Automatic weather station (AWS), Surface land meteorological station (SYNOP), GOS General",35.4347,133.3386,https://oscar.wmo.int/surface/#/search/station/stationReportDetails/0-20000-0-47744
2,Asia,Japan,JPN,0-20000-0-47912,47912,0,YONAGUNIJIMA,24 28 00N,123 00 38E,36.43,,30.00,,mean sea level,,,,,,,,,,,,,,"Automatic weather station (AWS), Surface land meteorological station (SYNOP), GOS General",24.4667,123.0106,https://oscar.wmo.int/surface/#/search/station/stationReportDetails/0-20000-0-47912
2,Asia,Japan,JPN,0-20000-0-47680,47680,0,ZAMA/KASTNER,35 30 49N,139 23 37E,114.86,,111.86,,mean sea level,,,,,,,,,,,,,,"Surface land meteorological station (SYNOP), GOS General",35.5136,139.3936,https://oscar.wmo.int/surface/#/search/station/stationReportDetails/0-20000-0-47680
7,Antarctica,Japan,JPN,0-20000-0-89532,89532,0,SYOWA,69 00 19S,039 34 52E,21.80,,29.10,,mean sea level,,,,,,,,,,,,,,"Upper-air / Radiosonde station, Surface land meteorological station (SYNOP), GUAN, CLIMAT(C) - to be deprecated, GOS General, GBON, ANTON - deprecated, GSN, RBON, ANTON(T) - to be deprecated",-69.0053,39.5811,https://oscar.wmo.int/surface/#/search/station/stationReportDetails/0-20000-0-89532
